{
"type": "FeatureCollection",
"name": "dbscan_clusters",
"crs": { "type": "name", "properties": { "name": "urn:ogc:def:crs:OGC:1.3:CRS84" } },
"features": [
{ "type": "Feature", "properties": { "score": 80.408484616097311, "cluster_id": 0, "cluster_status": "Cluster 0" }, "geometry": { "type": "Point", "coordinates": [ -73.979447178189474, 40.743314068869601 ] } },
{ "type": "Feature", "properties": { "score": 98.798240210148805, "cluster_id": -1, "cluster_status": "Noise" }, "geometry": { "type": "Point", "coordinates": [ -73.991335530716924, 40.703188554210428 ] } },
{ "type": "Feature", "properties": { "score": 97.542429408104937, "cluster_id": 1, "cluster_status": "Cluster 1" }, "geometry": { "type": "Point", "coordinates": [ -73.953689613848468, 40.770510457056552 ] } },
{ "type": "Feature", "properties": { "score": 92.142765536825095, "cluster_id": -1, "cluster_status": "Noise" }, "geometry": { "type": "Point", "coordinates": [ -74.032733757948421, 40.703581516793101 ] } },
{ "type": "Feature", "properties": { "score": 76.724453067916528, "cluster_id": -1, "cluster_status": "Noise" }, "geometry": { "type": "Point", "coordinates": [ -73.985291002703434, 40.725195083448099 ] } },
{ "type": "Feature", "properties": { "score": 91.360056709175566, "cluster_id": -1, "cluster_status": "Noise" }, "geometry": { "type": "Point", "coordinates": [ -73.933546413029248, 40.712194440166492 ] } },
{ "type": "Feature", "properties": { "score": 99.302423748368639, "cluster_id": 2, "cluster_status": "Cluster 2" }, "geometry": { "type": "Point", "coordinates": [ -73.911696077701635, 40.752178752801811 ] } },
{ "type": "Feature", "properties": { "score": 88.291822138008229, "cluster_id": -1, "cluster_status": "Noise" }, "geometry": { "type": "Point", "coordinates": [ -73.90227408228435, 40.782098093497105 ] } },
{ "type": "Feature", "properties": { "score": 86.173345884574715, "cluster_id": 0, "cluster_status": "Cluster 0" }, "geometry": { "type": "Point", "coordinates": [ -73.979609390168406, 40.740279883436472 ] } },
{ "type": "Feature", "properties": { "score": 78.130087733629182, "cluster_id": 3, "cluster_status": "Cluster 3" }, "geometry": { "type": "Point", "coordinates": [ -74.014563917436604, 40.710719515031968 ] } },
{ "type": "Feature", "properties": { "score": 98.070950368981926, "cluster_id": -1, "cluster_status": "Noise" }, "geometry": { "type": "Point", "coordinates": [ -74.024714793290187, 40.732622090019696 ] } },
{ "type": "Feature", "properties": { "score": 99.613239897609148, "cluster_id": 4, "cluster_status": "Cluster 4" }, "geometry": { "type": "Point", "coordinates": [ -73.977182888726162, 40.753975013169644 ] } },
{ "type": "Feature", "properties": { "score": 99.678844032832615, "cluster_id": 5, "cluster_status": "Cluster 5" }, "geometry": { "type": "Point", "coordinates": [ -73.932937494098155, 40.730812845353817 ] } },
{ "type": "Feature", "properties": { "score": 84.836739845472607, "cluster_id": 13, "cluster_status": "Cluster 13" }, "geometry": { "type": "Point", "coordinates": [ -73.916276426308741, 40.793410619668315 ] } },
{ "type": "Feature", "properties": { "score": 95.300620766941321, "cluster_id": 5, "cluster_status": "Cluster 5" }, "geometry": { "type": "Point", "coordinates": [ -73.935490843138524, 40.727539459248028 ] } },
{ "type": "Feature", "properties": { "score": 93.274444604775624, "cluster_id": 8, "cluster_status": "Cluster 8" }, "geometry": { "type": "Point", "coordinates": [ -73.993783406174046, 40.70901999414469 ] } },
{ "type": "Feature", "properties": { "score": 83.069333138901015, "cluster_id": -1, "cluster_status": "Noise" }, "geometry": { "type": "Point", "coordinates": [ -74.000515197578935, 40.756658482792552 ] } },
{ "type": "Feature", "properties": { "score": 81.044101722162935, "cluster_id": -1, "cluster_status": "Noise" }, "geometry": { "type": "Point", "coordinates": [ -73.941559827272499, 40.790746550747812 ] } },
{ "type": "Feature", "properties": { "score": 93.574200679750732, "cluster_id": 6, "cluster_status": "Cluster 6" }, "geometry": { "type": "Point", "coordinates": [ -73.975725809935369, 40.788383661426742 ] } },
{ "type": "Feature", "properties": { "score": 78.208594640233912, "cluster_id": -1, "cluster_status": "Noise" }, "geometry": { "type": "Point", "coordinates": [ -73.952917313901338, 40.702741740610556 ] } },
{ "type": "Feature", "properties": { "score": 98.178271188070354, "cluster_id": -1, "cluster_status": "Noise" }, "geometry": { "type": "Point", "coordinates": [ -73.950396220230544, 40.753462857151632 ] } },
{ "type": "Feature", "properties": { "score": 78.598131293494077, "cluster_id": -1, "cluster_status": "Noise" }, "geometry": { "type": "Point", "coordinates": [ -73.95843789352422, 40.780872828908493 ] } },
{ "type": "Feature", "properties": { "score": 96.967526646023742, "cluster_id": -1, "cluster_status": "Noise" }, "geometry": { "type": "Point", "coordinates": [ -74.032904321721276, 40.723291856338335 ] } },
{ "type": "Feature", "properties": { "score": 79.249789596292231, "cluster_id": -1, "cluster_status": "Noise" }, "geometry": { "type": "Point", "coordinates": [ -73.996424271776888, 40.766675310932456 ] } },
{ "type": "Feature", "properties": { "score": 95.149465540801444, "cluster_id": 7, "cluster_status": "Cluster 7" }, "geometry": { "type": "Point", "coordinates": [ -73.947211639583145, 40.742890547112694 ] } },
{ "type": "Feature", "properties": { "score": 70.148975239107358, "cluster_id": -1, "cluster_status": "Noise" }, "geometry": { "type": "Point", "coordinates": [ -73.986561662251887, 40.768110883314776 ] } },
{ "type": "Feature", "properties": { "score": 85.16917232614334, "cluster_id": 16, "cluster_status": "Cluster 16" }, "geometry": { "type": "Point", "coordinates": [ -73.922693415714846, 40.714121323342717 ] } },
{ "type": "Feature", "properties": { "score": 95.738994205737839, "cluster_id": -1, "cluster_status": "Noise" }, "geometry": { "type": "Point", "coordinates": [ -74.022376400519533, 40.754114878319712 ] } },
{ "type": "Feature", "properties": { "score": 74.316969433481361, "cluster_id": 20, "cluster_status": "Cluster 20" }, "geometry": { "type": "Point", "coordinates": [ -73.91648357968198, 40.777111627373344 ] } },
{ "type": "Feature", "properties": { "score": 82.968598264846463, "cluster_id": -1, "cluster_status": "Noise" }, "geometry": { "type": "Point", "coordinates": [ -74.013920556861578, 40.792310662160588 ] } },
{ "type": "Feature", "properties": { "score": 91.68080353196406, "cluster_id": 11, "cluster_status": "Cluster 11" }, "geometry": { "type": "Point", "coordinates": [ -73.918847774579632, 40.733113003988798 ] } },
{ "type": "Feature", "properties": { "score": 97.532364397728543, "cluster_id": -1, "cluster_status": "Noise" }, "geometry": { "type": "Point", "coordinates": [ -74.029234934369043, 40.761124761990494 ] } },
{ "type": "Feature", "properties": { "score": 91.69779317930508, "cluster_id": 8, "cluster_status": "Cluster 8" }, "geometry": { "type": "Point", "coordinates": [ -73.995173748318251, 40.720851186623214 ] } },
{ "type": "Feature", "properties": { "score": 78.381328607436927, "cluster_id": -1, "cluster_status": "Noise" }, "geometry": { "type": "Point", "coordinates": [ -74.049042890438542, 40.705077692785522 ] } },
{ "type": "Feature", "properties": { "score": 73.061102643693857, "cluster_id": -1, "cluster_status": "Noise" }, "geometry": { "type": "Point", "coordinates": [ -73.96405117140975, 40.786188453118839 ] } },
{ "type": "Feature", "properties": { "score": 77.785421539169249, "cluster_id": -1, "cluster_status": "Noise" }, "geometry": { "type": "Point", "coordinates": [ -73.942569039969356, 40.760090052356794 ] } },
{ "type": "Feature", "properties": { "score": 98.900377370692354, "cluster_id": -1, "cluster_status": "Noise" }, "geometry": { "type": "Point", "coordinates": [ -74.02673049731618, 40.725469173405507 ] } },
{ "type": "Feature", "properties": { "score": 77.400615405784706, "cluster_id": -1, "cluster_status": "Noise" }, "geometry": { "type": "Point", "coordinates": [ -73.968583994358639, 40.710491293484786 ] } },
{ "type": "Feature", "properties": { "score": 81.565432111150244, "cluster_id": -1, "cluster_status": "Noise" }, "geometry": { "type": "Point", "coordinates": [ -74.029008629802448, 40.767982509334729 ] } },
{ "type": "Feature", "properties": { "score": 89.766561788886364, "cluster_id": -1, "cluster_status": "Noise" }, "geometry": { "type": "Point", "coordinates": [ -73.934770250468304, 40.753624559901901 ] } },
{ "type": "Feature", "properties": { "score": 95.20033271775543, "cluster_id": -1, "cluster_status": "Noise" }, "geometry": { "type": "Point", "coordinates": [ -73.968429155801715, 40.701639397120026 ] } },
{ "type": "Feature", "properties": { "score": 87.319917485366688, "cluster_id": -1, "cluster_status": "Noise" }, "geometry": { "type": "Point", "coordinates": [ -74.041347569796443, 40.766092507622844 ] } },
{ "type": "Feature", "properties": { "score": 84.021138686885124, "cluster_id": -1, "cluster_status": "Noise" }, "geometry": { "type": "Point", "coordinates": [ -73.930180119242749, 40.786099831470061 ] } },
{ "type": "Feature", "properties": { "score": 74.621188924365484, "cluster_id": -1, "cluster_status": "Noise" }, "geometry": { "type": "Point", "coordinates": [ -74.037364835068658, 40.748401064074216 ] } },
{ "type": "Feature", "properties": { "score": 77.471863554669, "cluster_id": 1, "cluster_status": "Cluster 1" }, "geometry": { "type": "Point", "coordinates": [ -73.949110618925445, 40.77847514804035 ] } },
{ "type": "Feature", "properties": { "score": 96.924006887525195, "cluster_id": -1, "cluster_status": "Noise" }, "geometry": { "type": "Point", "coordinates": [ -74.02501496973683, 40.740378636998869 ] } },
{ "type": "Feature", "properties": { "score": 74.806496817795505, "cluster_id": 19, "cluster_status": "Cluster 19" }, "geometry": { "type": "Point", "coordinates": [ -73.941607992894035, 40.772422260987348 ] } },
{ "type": "Feature", "properties": { "score": 95.582682805959408, "cluster_id": -1, "cluster_status": "Noise" }, "geometry": { "type": "Point", "coordinates": [ -73.902747591308554, 40.700027102308333 ] } },
{ "type": "Feature", "properties": { "score": 82.204495759331635, "cluster_id": -1, "cluster_status": "Noise" }, "geometry": { "type": "Point", "coordinates": [ -73.993800829917305, 40.743667347230513 ] } },
{ "type": "Feature", "properties": { "score": 92.304764496915624, "cluster_id": -1, "cluster_status": "Noise" }, "geometry": { "type": "Point", "coordinates": [ -73.923799912566267, 40.702659652620504 ] } },
{ "type": "Feature", "properties": { "score": 96.840177609373256, "cluster_id": 2, "cluster_status": "Cluster 2" }, "geometry": { "type": "Point", "coordinates": [ -73.906337785619868, 40.75579528329537 ] } },
{ "type": "Feature", "properties": { "score": 77.333048851058805, "cluster_id": 6, "cluster_status": "Cluster 6" }, "geometry": { "type": "Point", "coordinates": [ -73.971739546792236, 40.786062469449533 ] } },
{ "type": "Feature", "properties": { "score": 92.59765033910989, "cluster_id": 9, "cluster_status": "Cluster 9" }, "geometry": { "type": "Point", "coordinates": [ -74.002393350777268, 40.703651259552238 ] } },
{ "type": "Feature", "properties": { "score": 93.135822391259211, "cluster_id": 0, "cluster_status": "Cluster 0" }, "geometry": { "type": "Point", "coordinates": [ -73.986668077656475, 40.741957140402221 ] } },
{ "type": "Feature", "properties": { "score": 87.259515125304148, "cluster_id": -1, "cluster_status": "Noise" }, "geometry": { "type": "Point", "coordinates": [ -74.039836464601422, 40.797370628125783 ] } },
{ "type": "Feature", "properties": { "score": 84.459801517104907, "cluster_id": 7, "cluster_status": "Cluster 7" }, "geometry": { "type": "Point", "coordinates": [ -73.934505786750961, 40.74152561715146 ] } },
{ "type": "Feature", "properties": { "score": 88.995313575555315, "cluster_id": -1, "cluster_status": "Noise" }, "geometry": { "type": "Point", "coordinates": [ -73.970864569103796, 40.747480379452888 ] } },
{ "type": "Feature", "properties": { "score": 70.002898684810731, "cluster_id": 10, "cluster_status": "Cluster 10" }, "geometry": { "type": "Point", "coordinates": [ -74.007320945430394, 40.776212279302882 ] } },
{ "type": "Feature", "properties": { "score": 99.674379940352367, "cluster_id": -1, "cluster_status": "Noise" }, "geometry": { "type": "Point", "coordinates": [ -74.044885012090191, 40.707702864761728 ] } },
{ "type": "Feature", "properties": { "score": 77.324252689632374, "cluster_id": 0, "cluster_status": "Cluster 0" }, "geometry": { "type": "Point", "coordinates": [ -73.982841387501651, 40.737923697356422 ] } },
{ "type": "Feature", "properties": { "score": 75.527796709964207, "cluster_id": -1, "cluster_status": "Noise" }, "geometry": { "type": "Point", "coordinates": [ -74.039038866844152, 40.786740679476146 ] } },
{ "type": "Feature", "properties": { "score": 91.275139331695812, "cluster_id": -1, "cluster_status": "Noise" }, "geometry": { "type": "Point", "coordinates": [ -73.944248208364485, 40.753545356974719 ] } },
{ "type": "Feature", "properties": { "score": 85.413360213719756, "cluster_id": 3, "cluster_status": "Cluster 3" }, "geometry": { "type": "Point", "coordinates": [ -74.010238695672371, 40.711240854455767 ] } },
{ "type": "Feature", "properties": { "score": 76.143802074943295, "cluster_id": 8, "cluster_status": "Cluster 8" }, "geometry": { "type": "Point", "coordinates": [ -73.987018829682555, 40.714324767515329 ] } },
{ "type": "Feature", "properties": { "score": 70.488989237236865, "cluster_id": 18, "cluster_status": "Cluster 18" }, "geometry": { "type": "Point", "coordinates": [ -73.94877662538947, 40.736065204750588 ] } },
{ "type": "Feature", "properties": { "score": 79.004641520378811, "cluster_id": -1, "cluster_status": "Noise" }, "geometry": { "type": "Point", "coordinates": [ -73.911884007332475, 40.767115542604927 ] } },
{ "type": "Feature", "properties": { "score": 87.559988907384934, "cluster_id": -1, "cluster_status": "Noise" }, "geometry": { "type": "Point", "coordinates": [ -73.939263819513798, 40.787502578964826 ] } },
{ "type": "Feature", "properties": { "score": 90.278971544991236, "cluster_id": -1, "cluster_status": "Noise" }, "geometry": { "type": "Point", "coordinates": [ -73.969077518789362, 40.75936579472225 ] } },
{ "type": "Feature", "properties": { "score": 83.942450846213831, "cluster_id": -1, "cluster_status": "Noise" }, "geometry": { "type": "Point", "coordinates": [ -73.901662828630151, 40.717655141249175 ] } },
{ "type": "Feature", "properties": { "score": 97.218159723683158, "cluster_id": 2, "cluster_status": "Cluster 2" }, "geometry": { "type": "Point", "coordinates": [ -73.902722839608145, 40.757918270226803 ] } },
{ "type": "Feature", "properties": { "score": 93.740017630220009, "cluster_id": 4, "cluster_status": "Cluster 4" }, "geometry": { "type": "Point", "coordinates": [ -73.978761322917123, 40.756091813478093 ] } },
{ "type": "Feature", "properties": { "score": 95.023827859520864, "cluster_id": 4, "cluster_status": "Cluster 4" }, "geometry": { "type": "Point", "coordinates": [ -73.977988280379535, 40.757734879714491 ] } },
{ "type": "Feature", "properties": { "score": 81.080458990979707, "cluster_id": 2, "cluster_status": "Cluster 2" }, "geometry": { "type": "Point", "coordinates": [ -73.914144381807517, 40.752008847658082 ] } },
{ "type": "Feature", "properties": { "score": 74.78920753303089, "cluster_id": 11, "cluster_status": "Cluster 11" }, "geometry": { "type": "Point", "coordinates": [ -73.922825585561696, 40.732995328317024 ] } },
{ "type": "Feature", "properties": { "score": 89.823153318575294, "cluster_id": 12, "cluster_status": "Cluster 12" }, "geometry": { "type": "Point", "coordinates": [ -74.03647209094882, 40.732260043255494 ] } },
{ "type": "Feature", "properties": { "score": 77.779772960911174, "cluster_id": 13, "cluster_status": "Cluster 13" }, "geometry": { "type": "Point", "coordinates": [ -73.912289536378609, 40.795436830689383 ] } },
{ "type": "Feature", "properties": { "score": 91.280666025497482, "cluster_id": 14, "cluster_status": "Cluster 14" }, "geometry": { "type": "Point", "coordinates": [ -73.986872926750451, 40.756260836956038 ] } },
{ "type": "Feature", "properties": { "score": 87.544260421598651, "cluster_id": 8, "cluster_status": "Cluster 8" }, "geometry": { "type": "Point", "coordinates": [ -73.995806637302337, 40.719730112482296 ] } },
{ "type": "Feature", "properties": { "score": 73.623503410327245, "cluster_id": 13, "cluster_status": "Cluster 13" }, "geometry": { "type": "Point", "coordinates": [ -73.909112007029123, 40.795155713589132 ] } },
{ "type": "Feature", "properties": { "score": 91.730647028599989, "cluster_id": 8, "cluster_status": "Cluster 8" }, "geometry": { "type": "Point", "coordinates": [ -73.985146185799834, 40.716972646453804 ] } },
{ "type": "Feature", "properties": { "score": 74.983219067015781, "cluster_id": -1, "cluster_status": "Noise" }, "geometry": { "type": "Point", "coordinates": [ -73.963819161240821, 40.774236054359172 ] } },
{ "type": "Feature", "properties": { "score": 85.009805765149423, "cluster_id": 15, "cluster_status": "Cluster 15" }, "geometry": { "type": "Point", "coordinates": [ -74.022931635988854, 40.703447630649009 ] } },
{ "type": "Feature", "properties": { "score": 83.528079126466309, "cluster_id": -1, "cluster_status": "Noise" }, "geometry": { "type": "Point", "coordinates": [ -73.959142065729267, 40.723511572405485 ] } },
{ "type": "Feature", "properties": { "score": 91.785735263633001, "cluster_id": 4, "cluster_status": "Cluster 4" }, "geometry": { "type": "Point", "coordinates": [ -73.976047080096009, 40.757786717749639 ] } },
{ "type": "Feature", "properties": { "score": 84.37548660320121, "cluster_id": 8, "cluster_status": "Cluster 8" }, "geometry": { "type": "Point", "coordinates": [ -74.001068059492809, 40.718192615953825 ] } },
{ "type": "Feature", "properties": { "score": 79.736074881873066, "cluster_id": -1, "cluster_status": "Noise" }, "geometry": { "type": "Point", "coordinates": [ -73.960298476815723, 40.701932767253446 ] } },
{ "type": "Feature", "properties": { "score": 99.663142261532045, "cluster_id": -1, "cluster_status": "Noise" }, "geometry": { "type": "Point", "coordinates": [ -74.024872519942164, 40.757560609970838 ] } },
{ "type": "Feature", "properties": { "score": 81.667830467435806, "cluster_id": -1, "cluster_status": "Noise" }, "geometry": { "type": "Point", "coordinates": [ -73.963769017996484, 40.761592626808685 ] } },
{ "type": "Feature", "properties": { "score": 93.562942149649544, "cluster_id": 14, "cluster_status": "Cluster 14" }, "geometry": { "type": "Point", "coordinates": [ -73.989159785649207, 40.75698239800991 ] } },
{ "type": "Feature", "properties": { "score": 75.386798300116936, "cluster_id": -1, "cluster_status": "Noise" }, "geometry": { "type": "Point", "coordinates": [ -74.017947398442999, 40.739605022434013 ] } },
{ "type": "Feature", "properties": { "score": 81.094107563134585, "cluster_id": 3, "cluster_status": "Cluster 3" }, "geometry": { "type": "Point", "coordinates": [ -74.012023059909865, 40.708802798239731 ] } },
{ "type": "Feature", "properties": { "score": 90.21010402758651, "cluster_id": -1, "cluster_status": "Noise" }, "geometry": { "type": "Point", "coordinates": [ -73.95593054536856, 40.7621683528278 ] } },
{ "type": "Feature", "properties": { "score": 93.106584605237913, "cluster_id": -1, "cluster_status": "Noise" }, "geometry": { "type": "Point", "coordinates": [ -73.985119131442616, 40.773728216008301 ] } },
{ "type": "Feature", "properties": { "score": 79.412492625292089, "cluster_id": 7, "cluster_status": "Cluster 7" }, "geometry": { "type": "Point", "coordinates": [ -73.947376244160608, 40.741722551140029 ] } },
{ "type": "Feature", "properties": { "score": 90.111778488812433, "cluster_id": -1, "cluster_status": "Noise" }, "geometry": { "type": "Point", "coordinates": [ -73.969864599829393, 40.769750329589108 ] } },
{ "type": "Feature", "properties": { "score": 78.123565825774733, "cluster_id": 8, "cluster_status": "Cluster 8" }, "geometry": { "type": "Point", "coordinates": [ -73.982092937594231, 40.70895991496625 ] } },
{ "type": "Feature", "properties": { "score": 81.622445641975261, "cluster_id": -1, "cluster_status": "Noise" }, "geometry": { "type": "Point", "coordinates": [ -73.999603841604582, 40.710841867645669 ] } },
{ "type": "Feature", "properties": { "score": 82.375094331310493, "cluster_id": -1, "cluster_status": "Noise" }, "geometry": { "type": "Point", "coordinates": [ -74.008861218203506, 40.716821946670755 ] } },
{ "type": "Feature", "properties": { "score": 75.42409749254918, "cluster_id": -1, "cluster_status": "Noise" }, "geometry": { "type": "Point", "coordinates": [ -74.015976241449536, 40.727149873657282 ] } },
{ "type": "Feature", "properties": { "score": 79.149159989180276, "cluster_id": 10, "cluster_status": "Cluster 10" }, "geometry": { "type": "Point", "coordinates": [ -74.008913509085218, 40.778549888415533 ] } },
{ "type": "Feature", "properties": { "score": 83.739102253111056, "cluster_id": -1, "cluster_status": "Noise" }, "geometry": { "type": "Point", "coordinates": [ -73.90842796167442, 40.772814961692021 ] } },
{ "type": "Feature", "properties": { "score": 90.353187791072443, "cluster_id": -1, "cluster_status": "Noise" }, "geometry": { "type": "Point", "coordinates": [ -73.926548743258664, 40.759132323440134 ] } },
{ "type": "Feature", "properties": { "score": 96.991267618115728, "cluster_id": 17, "cluster_status": "Cluster 17" }, "geometry": { "type": "Point", "coordinates": [ -73.970410365476511, 40.790788230883848 ] } },
{ "type": "Feature", "properties": { "score": 87.429371164523985, "cluster_id": 1, "cluster_status": "Cluster 1" }, "geometry": { "type": "Point", "coordinates": [ -73.949932207339998, 40.773616486431081 ] } },
{ "type": "Feature", "properties": { "score": 99.84580890075469, "cluster_id": 16, "cluster_status": "Cluster 16" }, "geometry": { "type": "Point", "coordinates": [ -73.928213462662427, 40.716357015512465 ] } },
{ "type": "Feature", "properties": { "score": 80.701889128439461, "cluster_id": -1, "cluster_status": "Noise" }, "geometry": { "type": "Point", "coordinates": [ -73.952494305644166, 40.761344048158321 ] } },
{ "type": "Feature", "properties": { "score": 93.390429448386698, "cluster_id": -1, "cluster_status": "Noise" }, "geometry": { "type": "Point", "coordinates": [ -74.04797045624764, 40.719391474489072 ] } },
{ "type": "Feature", "properties": { "score": 89.671702980428449, "cluster_id": 17, "cluster_status": "Cluster 17" }, "geometry": { "type": "Point", "coordinates": [ -73.96965253666832, 40.794164076765149 ] } },
{ "type": "Feature", "properties": { "score": 70.647957366092811, "cluster_id": -1, "cluster_status": "Noise" }, "geometry": { "type": "Point", "coordinates": [ -73.959969609188107, 40.721843105129167 ] } },
{ "type": "Feature", "properties": { "score": 79.435199756698125, "cluster_id": 17, "cluster_status": "Cluster 17" }, "geometry": { "type": "Point", "coordinates": [ -73.968655725983695, 40.798054687766196 ] } },
{ "type": "Feature", "properties": { "score": 79.055791891253733, "cluster_id": 16, "cluster_status": "Cluster 16" }, "geometry": { "type": "Point", "coordinates": [ -73.928058802755771, 40.714522942203288 ] } },
{ "type": "Feature", "properties": { "score": 84.146706021749367, "cluster_id": 3, "cluster_status": "Cluster 3" }, "geometry": { "type": "Point", "coordinates": [ -74.01099231526058, 40.710501522832608 ] } },
{ "type": "Feature", "properties": { "score": 72.035874136188568, "cluster_id": 11, "cluster_status": "Cluster 11" }, "geometry": { "type": "Point", "coordinates": [ -73.92787347759311, 40.74372063151165 ] } },
{ "type": "Feature", "properties": { "score": 74.112966174286129, "cluster_id": -1, "cluster_status": "Noise" }, "geometry": { "type": "Point", "coordinates": [ -73.941734621804741, 40.765673046470297 ] } },
{ "type": "Feature", "properties": { "score": 89.030054528390437, "cluster_id": -1, "cluster_status": "Noise" }, "geometry": { "type": "Point", "coordinates": [ -74.019026250656538, 40.797586616678977 ] } },
{ "type": "Feature", "properties": { "score": 78.708484842498308, "cluster_id": 6, "cluster_status": "Cluster 6" }, "geometry": { "type": "Point", "coordinates": [ -73.976692852052551, 40.791907456579452 ] } },
{ "type": "Feature", "properties": { "score": 98.239718713934622, "cluster_id": -1, "cluster_status": "Noise" }, "geometry": { "type": "Point", "coordinates": [ -73.933376472218313, 40.722655752218088 ] } },
{ "type": "Feature", "properties": { "score": 92.363701444786955, "cluster_id": -1, "cluster_status": "Noise" }, "geometry": { "type": "Point", "coordinates": [ -73.937748497598022, 40.798431745197078 ] } },
{ "type": "Feature", "properties": { "score": 91.612700551456669, "cluster_id": 15, "cluster_status": "Cluster 15" }, "geometry": { "type": "Point", "coordinates": [ -74.022005936260584, 40.703019040394409 ] } },
{ "type": "Feature", "properties": { "score": 95.00910407513561, "cluster_id": 6, "cluster_status": "Cluster 6" }, "geometry": { "type": "Point", "coordinates": [ -73.975989028798651, 40.786472548779187 ] } },
{ "type": "Feature", "properties": { "score": 79.875382714973654, "cluster_id": -1, "cluster_status": "Noise" }, "geometry": { "type": "Point", "coordinates": [ -73.905710867694182, 40.771028796492033 ] } },
{ "type": "Feature", "properties": { "score": 96.625750511407347, "cluster_id": -1, "cluster_status": "Noise" }, "geometry": { "type": "Point", "coordinates": [ -73.91405097643532, 40.7861549441159 ] } },
{ "type": "Feature", "properties": { "score": 75.099482829300982, "cluster_id": -1, "cluster_status": "Noise" }, "geometry": { "type": "Point", "coordinates": [ -73.958114640902124, 40.797078382233302 ] } },
{ "type": "Feature", "properties": { "score": 93.294807741206597, "cluster_id": 8, "cluster_status": "Cluster 8" }, "geometry": { "type": "Point", "coordinates": [ -73.997621841785261, 40.718652695158831 ] } },
{ "type": "Feature", "properties": { "score": 84.402934612121371, "cluster_id": 3, "cluster_status": "Cluster 3" }, "geometry": { "type": "Point", "coordinates": [ -74.020324419797618, 40.708433382867788 ] } },
{ "type": "Feature", "properties": { "score": 76.603065541513075, "cluster_id": 18, "cluster_status": "Cluster 18" }, "geometry": { "type": "Point", "coordinates": [ -73.952942251873196, 40.737038834040874 ] } },
{ "type": "Feature", "properties": { "score": 98.884325968830524, "cluster_id": 22, "cluster_status": "Cluster 22" }, "geometry": { "type": "Point", "coordinates": [ -73.910880792867871, 40.705443916767329 ] } },
{ "type": "Feature", "properties": { "score": 97.917454755354413, "cluster_id": -1, "cluster_status": "Noise" }, "geometry": { "type": "Point", "coordinates": [ -74.002190569054903, 40.797259900608481 ] } },
{ "type": "Feature", "properties": { "score": 96.353713915491056, "cluster_id": -1, "cluster_status": "Noise" }, "geometry": { "type": "Point", "coordinates": [ -73.961270605174775, 40.739349451525904 ] } },
{ "type": "Feature", "properties": { "score": 70.379361426901397, "cluster_id": 2, "cluster_status": "Cluster 2" }, "geometry": { "type": "Point", "coordinates": [ -73.901355952669519, 40.759275879628603 ] } },
{ "type": "Feature", "properties": { "score": 76.009693463666721, "cluster_id": 3, "cluster_status": "Cluster 3" }, "geometry": { "type": "Point", "coordinates": [ -74.019532177933712, 40.713134688725525 ] } },
{ "type": "Feature", "properties": { "score": 90.94747722840539, "cluster_id": -1, "cluster_status": "Noise" }, "geometry": { "type": "Point", "coordinates": [ -74.036987707985162, 40.78734613222155 ] } },
{ "type": "Feature", "properties": { "score": 92.905284627336357, "cluster_id": -1, "cluster_status": "Noise" }, "geometry": { "type": "Point", "coordinates": [ -73.909600101251868, 40.734612435059439 ] } },
{ "type": "Feature", "properties": { "score": 85.89773707606264, "cluster_id": 21, "cluster_status": "Cluster 21" }, "geometry": { "type": "Point", "coordinates": [ -74.049916708037912, 40.7140309008836 ] } },
{ "type": "Feature", "properties": { "score": 97.090254693024349, "cluster_id": -1, "cluster_status": "Noise" }, "geometry": { "type": "Point", "coordinates": [ -73.9747673080917, 40.704345217318938 ] } },
{ "type": "Feature", "properties": { "score": 96.570514130678418, "cluster_id": 19, "cluster_status": "Cluster 19" }, "geometry": { "type": "Point", "coordinates": [ -73.945541925960129, 40.769804451537063 ] } },
{ "type": "Feature", "properties": { "score": 79.359806291553468, "cluster_id": 8, "cluster_status": "Cluster 8" }, "geometry": { "type": "Point", "coordinates": [ -73.990567260026793, 40.708062440160901 ] } },
{ "type": "Feature", "properties": { "score": 90.802151573338691, "cluster_id": 9, "cluster_status": "Cluster 9" }, "geometry": { "type": "Point", "coordinates": [ -74.002282770495555, 40.705402970952605 ] } },
{ "type": "Feature", "properties": { "score": 79.065541703920488, "cluster_id": -1, "cluster_status": "Noise" }, "geometry": { "type": "Point", "coordinates": [ -73.993904741463282, 40.753027440510891 ] } },
{ "type": "Feature", "properties": { "score": 72.422115299174834, "cluster_id": 10, "cluster_status": "Cluster 10" }, "geometry": { "type": "Point", "coordinates": [ -74.008739264932913, 40.775141710863153 ] } },
{ "type": "Feature", "properties": { "score": 89.151874208671671, "cluster_id": -1, "cluster_status": "Noise" }, "geometry": { "type": "Point", "coordinates": [ -73.96514048309399, 40.774618427738169 ] } },
{ "type": "Feature", "properties": { "score": 85.988288223946569, "cluster_id": 23, "cluster_status": "Cluster 23" }, "geometry": { "type": "Point", "coordinates": [ -74.018667470504113, 40.785749395174882 ] } },
{ "type": "Feature", "properties": { "score": 88.610085045238151, "cluster_id": -1, "cluster_status": "Noise" }, "geometry": { "type": "Point", "coordinates": [ -73.99981702212672, 40.793019511594295 ] } },
{ "type": "Feature", "properties": { "score": 97.412573029879667, "cluster_id": -1, "cluster_status": "Noise" }, "geometry": { "type": "Point", "coordinates": [ -74.04582571968416, 40.795789615558 ] } },
{ "type": "Feature", "properties": { "score": 71.164349379606463, "cluster_id": 20, "cluster_status": "Cluster 20" }, "geometry": { "type": "Point", "coordinates": [ -73.916239893885574, 40.771140119348324 ] } },
{ "type": "Feature", "properties": { "score": 74.266358183369761, "cluster_id": -1, "cluster_status": "Noise" }, "geometry": { "type": "Point", "coordinates": [ -73.933662941042797, 40.774614039635438 ] } },
{ "type": "Feature", "properties": { "score": 96.644254673235238, "cluster_id": -1, "cluster_status": "Noise" }, "geometry": { "type": "Point", "coordinates": [ -74.022978860923956, 40.747736617697953 ] } },
{ "type": "Feature", "properties": { "score": 86.778732857359188, "cluster_id": 14, "cluster_status": "Cluster 14" }, "geometry": { "type": "Point", "coordinates": [ -73.985448659322088, 40.752767322858226 ] } },
{ "type": "Feature", "properties": { "score": 99.006973656577458, "cluster_id": 20, "cluster_status": "Cluster 20" }, "geometry": { "type": "Point", "coordinates": [ -73.915902550187226, 40.771814960297384 ] } },
{ "type": "Feature", "properties": { "score": 96.676854182137049, "cluster_id": -1, "cluster_status": "Noise" }, "geometry": { "type": "Point", "coordinates": [ -73.989171840481944, 40.769595781581906 ] } },
{ "type": "Feature", "properties": { "score": 78.988663024935633, "cluster_id": 11, "cluster_status": "Cluster 11" }, "geometry": { "type": "Point", "coordinates": [ -73.926717347281908, 40.734872644657187 ] } },
{ "type": "Feature", "properties": { "score": 81.78442401689415, "cluster_id": 24, "cluster_status": "Cluster 24" }, "geometry": { "type": "Point", "coordinates": [ -73.915346157323313, 40.720228520450981 ] } },
{ "type": "Feature", "properties": { "score": 95.882561861132189, "cluster_id": 1, "cluster_status": "Cluster 1" }, "geometry": { "type": "Point", "coordinates": [ -73.948467804298161, 40.77394430172631 ] } },
{ "type": "Feature", "properties": { "score": 88.294384047150984, "cluster_id": -1, "cluster_status": "Noise" }, "geometry": { "type": "Point", "coordinates": [ -73.924870178199271, 40.788720474120176 ] } },
{ "type": "Feature", "properties": { "score": 93.317354438672723, "cluster_id": 21, "cluster_status": "Cluster 21" }, "geometry": { "type": "Point", "coordinates": [ -74.046066901528448, 40.714032157321938 ] } },
{ "type": "Feature", "properties": { "score": 75.980286506687094, "cluster_id": 2, "cluster_status": "Cluster 2" }, "geometry": { "type": "Point", "coordinates": [ -73.908366390660902, 40.755480758459129 ] } },
{ "type": "Feature", "properties": { "score": 72.752584068578585, "cluster_id": 0, "cluster_status": "Cluster 0" }, "geometry": { "type": "Point", "coordinates": [ -73.972651959070092, 40.740619219901312 ] } },
{ "type": "Feature", "properties": { "score": 83.189715801683846, "cluster_id": 22, "cluster_status": "Cluster 22" }, "geometry": { "type": "Point", "coordinates": [ -73.917170280573131, 40.704349391948597 ] } },
{ "type": "Feature", "properties": { "score": 83.853087955304886, "cluster_id": -1, "cluster_status": "Noise" }, "geometry": { "type": "Point", "coordinates": [ -73.973667392917335, 40.726538058409851 ] } },
{ "type": "Feature", "properties": { "score": 71.376095506109095, "cluster_id": 0, "cluster_status": "Cluster 0" }, "geometry": { "type": "Point", "coordinates": [ -73.972889346385443, 40.738343635910482 ] } },
{ "type": "Feature", "properties": { "score": 74.250675456678451, "cluster_id": -1, "cluster_status": "Noise" }, "geometry": { "type": "Point", "coordinates": [ -74.045367121039746, 40.792462473964761 ] } },
{ "type": "Feature", "properties": { "score": 87.523892508726988, "cluster_id": 0, "cluster_status": "Cluster 0" }, "geometry": { "type": "Point", "coordinates": [ -73.976252239284435, 40.742087943745801 ] } },
{ "type": "Feature", "properties": { "score": 78.378070957352378, "cluster_id": -1, "cluster_status": "Noise" }, "geometry": { "type": "Point", "coordinates": [ -73.933059315277006, 40.791731101302354 ] } },
{ "type": "Feature", "properties": { "score": 78.668702156056824, "cluster_id": -1, "cluster_status": "Noise" }, "geometry": { "type": "Point", "coordinates": [ -73.962960520230524, 40.763022671508011 ] } },
{ "type": "Feature", "properties": { "score": 78.966941370922996, "cluster_id": -1, "cluster_status": "Noise" }, "geometry": { "type": "Point", "coordinates": [ -73.938678245569719, 40.720215087352344 ] } },
{ "type": "Feature", "properties": { "score": 98.475189094648584, "cluster_id": -1, "cluster_status": "Noise" }, "geometry": { "type": "Point", "coordinates": [ -73.994555971286673, 40.789169213435144 ] } },
{ "type": "Feature", "properties": { "score": 92.634956478072084, "cluster_id": 15, "cluster_status": "Cluster 15" }, "geometry": { "type": "Point", "coordinates": [ -74.013601704050231, 40.700743792950355 ] } },
{ "type": "Feature", "properties": { "score": 90.648599867787823, "cluster_id": 22, "cluster_status": "Cluster 22" }, "geometry": { "type": "Point", "coordinates": [ -73.918359375359202, 40.706690216174572 ] } },
{ "type": "Feature", "properties": { "score": 96.925493230833524, "cluster_id": 4, "cluster_status": "Cluster 4" }, "geometry": { "type": "Point", "coordinates": [ -73.97637024514195, 40.75800653413647 ] } },
{ "type": "Feature", "properties": { "score": 82.241015192960191, "cluster_id": 20, "cluster_status": "Cluster 20" }, "geometry": { "type": "Point", "coordinates": [ -73.9167647490722, 40.776241775251627 ] } },
{ "type": "Feature", "properties": { "score": 93.078647230204055, "cluster_id": -1, "cluster_status": "Noise" }, "geometry": { "type": "Point", "coordinates": [ -73.948099996401837, 40.791760059598325 ] } },
{ "type": "Feature", "properties": { "score": 92.680930664844112, "cluster_id": 23, "cluster_status": "Cluster 23" }, "geometry": { "type": "Point", "coordinates": [ -74.014151463828497, 40.785648643268388 ] } },
{ "type": "Feature", "properties": { "score": 80.21171891306895, "cluster_id": -1, "cluster_status": "Noise" }, "geometry": { "type": "Point", "coordinates": [ -74.000886517925579, 40.735035187935125 ] } },
{ "type": "Feature", "properties": { "score": 92.58066259624276, "cluster_id": 24, "cluster_status": "Cluster 24" }, "geometry": { "type": "Point", "coordinates": [ -73.915255311620527, 40.723558788638037 ] } },
{ "type": "Feature", "properties": { "score": 74.024673818375703, "cluster_id": 23, "cluster_status": "Cluster 23" }, "geometry": { "type": "Point", "coordinates": [ -74.011312109395547, 40.783107419961915 ] } },
{ "type": "Feature", "properties": { "score": 96.774799346493836, "cluster_id": 16, "cluster_status": "Cluster 16" }, "geometry": { "type": "Point", "coordinates": [ -73.930687708299075, 40.717376062272457 ] } },
{ "type": "Feature", "properties": { "score": 97.010284690225973, "cluster_id": 8, "cluster_status": "Cluster 8" }, "geometry": { "type": "Point", "coordinates": [ -73.985544846848896, 40.710339431803312 ] } },
{ "type": "Feature", "properties": { "score": 90.869889135034242, "cluster_id": 24, "cluster_status": "Cluster 24" }, "geometry": { "type": "Point", "coordinates": [ -73.91612292811601, 40.725808515795215 ] } },
{ "type": "Feature", "properties": { "score": 73.832946656775704, "cluster_id": -1, "cluster_status": "Noise" }, "geometry": { "type": "Point", "coordinates": [ -74.033388575586017, 40.779261806206023 ] } },
{ "type": "Feature", "properties": { "score": 74.846596664312983, "cluster_id": 5, "cluster_status": "Cluster 5" }, "geometry": { "type": "Point", "coordinates": [ -73.936838759204264, 40.732792707835799 ] } },
{ "type": "Feature", "properties": { "score": 79.218712105401636, "cluster_id": 22, "cluster_status": "Cluster 22" }, "geometry": { "type": "Point", "coordinates": [ -73.915937615939242, 40.703213479545006 ] } },
{ "type": "Feature", "properties": { "score": 74.056774844907522, "cluster_id": -1, "cluster_status": "Noise" }, "geometry": { "type": "Point", "coordinates": [ -74.034100110056031, 40.752727730960316 ] } },
{ "type": "Feature", "properties": { "score": 72.770691644491862, "cluster_id": 1, "cluster_status": "Cluster 1" }, "geometry": { "type": "Point", "coordinates": [ -73.939836241005409, 40.779279759825393 ] } },
{ "type": "Feature", "properties": { "score": 75.289679504320887, "cluster_id": 11, "cluster_status": "Cluster 11" }, "geometry": { "type": "Point", "coordinates": [ -73.92931512442577, 40.746043328768316 ] } },
{ "type": "Feature", "properties": { "score": 78.213327097945694, "cluster_id": 8, "cluster_status": "Cluster 8" }, "geometry": { "type": "Point", "coordinates": [ -73.988342644383195, 40.717715952831796 ] } },
{ "type": "Feature", "properties": { "score": 94.829849516286799, "cluster_id": 2, "cluster_status": "Cluster 2" }, "geometry": { "type": "Point", "coordinates": [ -73.90414011438952, 40.754766445692908 ] } },
{ "type": "Feature", "properties": { "score": 82.955643603037856, "cluster_id": -1, "cluster_status": "Noise" }, "geometry": { "type": "Point", "coordinates": [ -73.904387058556523, 40.707226620707161 ] } },
{ "type": "Feature", "properties": { "score": 71.838166735798012, "cluster_id": -1, "cluster_status": "Noise" }, "geometry": { "type": "Point", "coordinates": [ -73.968638183522216, 40.722034837908517 ] } },
{ "type": "Feature", "properties": { "score": 87.698812725537607, "cluster_id": -1, "cluster_status": "Noise" }, "geometry": { "type": "Point", "coordinates": [ -73.967624493098995, 40.701235272167715 ] } },
{ "type": "Feature", "properties": { "score": 99.617805316000556, "cluster_id": -1, "cluster_status": "Noise" }, "geometry": { "type": "Point", "coordinates": [ -74.025334402823518, 40.771991744272164 ] } },
{ "type": "Feature", "properties": { "score": 93.338228766634458, "cluster_id": -1, "cluster_status": "Noise" }, "geometry": { "type": "Point", "coordinates": [ -74.010721421300261, 40.724110096855135 ] } },
{ "type": "Feature", "properties": { "score": 92.219201560026718, "cluster_id": 11, "cluster_status": "Cluster 11" }, "geometry": { "type": "Point", "coordinates": [ -73.926471884077998, 40.74109612901411 ] } },
{ "type": "Feature", "properties": { "score": 95.580832802976175, "cluster_id": -1, "cluster_status": "Noise" }, "geometry": { "type": "Point", "coordinates": [ -73.961164211386276, 40.756351806006066 ] } },
{ "type": "Feature", "properties": { "score": 87.22023700067173, "cluster_id": 9, "cluster_status": "Cluster 9" }, "geometry": { "type": "Point", "coordinates": [ -73.997665605662817, 40.701154275232575 ] } },
{ "type": "Feature", "properties": { "score": 72.813507167545353, "cluster_id": 17, "cluster_status": "Cluster 17" }, "geometry": { "type": "Point", "coordinates": [ -73.965293332163512, 40.796719975888394 ] } },
{ "type": "Feature", "properties": { "score": 74.988062340589607, "cluster_id": -1, "cluster_status": "Noise" }, "geometry": { "type": "Point", "coordinates": [ -73.990122709637163, 40.764125411494398 ] } },
{ "type": "Feature", "properties": { "score": 85.692204001199968, "cluster_id": 0, "cluster_status": "Cluster 0" }, "geometry": { "type": "Point", "coordinates": [ -73.977766667718797, 40.74017934215189 ] } },
{ "type": "Feature", "properties": { "score": 70.778742610964713, "cluster_id": -1, "cluster_status": "Noise" }, "geometry": { "type": "Point", "coordinates": [ -73.966781248564203, 40.738101401357355 ] } },
{ "type": "Feature", "properties": { "score": 73.030356685147254, "cluster_id": -1, "cluster_status": "Noise" }, "geometry": { "type": "Point", "coordinates": [ -74.039690028587813, 40.718063279735219 ] } },
{ "type": "Feature", "properties": { "score": 92.212400230426596, "cluster_id": 8, "cluster_status": "Cluster 8" }, "geometry": { "type": "Point", "coordinates": [ -73.979980657925523, 40.716523309083911 ] } },
{ "type": "Feature", "properties": { "score": 82.160404100155176, "cluster_id": -1, "cluster_status": "Noise" }, "geometry": { "type": "Point", "coordinates": [ -73.975308340916982, 40.77738154505316 ] } },
{ "type": "Feature", "properties": { "score": 83.47867737745969, "cluster_id": 15, "cluster_status": "Cluster 15" }, "geometry": { "type": "Point", "coordinates": [ -74.011043503746734, 40.700920130275769 ] } },
{ "type": "Feature", "properties": { "score": 72.868421316932228, "cluster_id": 5, "cluster_status": "Cluster 5" }, "geometry": { "type": "Point", "coordinates": [ -73.928920874575383, 40.729249601455805 ] } },
{ "type": "Feature", "properties": { "score": 74.363210621496165, "cluster_id": 23, "cluster_status": "Cluster 23" }, "geometry": { "type": "Point", "coordinates": [ -74.009407685516052, 40.786201417422113 ] } },
{ "type": "Feature", "properties": { "score": 95.349971564040359, "cluster_id": -1, "cluster_status": "Noise" }, "geometry": { "type": "Point", "coordinates": [ -74.022082232156876, 40.748112255124774 ] } },
{ "type": "Feature", "properties": { "score": 78.952463839975991, "cluster_id": -1, "cluster_status": "Noise" }, "geometry": { "type": "Point", "coordinates": [ -73.926513892009623, 40.70685659657682 ] } },
{ "type": "Feature", "properties": { "score": 94.742642334913896, "cluster_id": -1, "cluster_status": "Noise" }, "geometry": { "type": "Point", "coordinates": [ -74.035026690523878, 40.765429504669243 ] } },
{ "type": "Feature", "properties": { "score": 98.044394760305948, "cluster_id": -1, "cluster_status": "Noise" }, "geometry": { "type": "Point", "coordinates": [ -73.961037870824654, 40.790804632432057 ] } },
{ "type": "Feature", "properties": { "score": 70.998237636351433, "cluster_id": -1, "cluster_status": "Noise" }, "geometry": { "type": "Point", "coordinates": [ -74.010750153271061, 40.740034115148745 ] } },
{ "type": "Feature", "properties": { "score": 71.161903885945463, "cluster_id": -1, "cluster_status": "Noise" }, "geometry": { "type": "Point", "coordinates": [ -74.018630562601459, 40.75816991301965 ] } },
{ "type": "Feature", "properties": { "score": 83.754905799071807, "cluster_id": 1, "cluster_status": "Cluster 1" }, "geometry": { "type": "Point", "coordinates": [ -73.951348656930065, 40.773479683635991 ] } },
{ "type": "Feature", "properties": { "score": 87.988484270188181, "cluster_id": 15, "cluster_status": "Cluster 15" }, "geometry": { "type": "Point", "coordinates": [ -74.018662436317015, 40.700743752354349 ] } },
{ "type": "Feature", "properties": { "score": 96.950712720626782, "cluster_id": -1, "cluster_status": "Noise" }, "geometry": { "type": "Point", "coordinates": [ -73.99672955703852, 40.727580859598127 ] } },
{ "type": "Feature", "properties": { "score": 92.943748272463722, "cluster_id": 11, "cluster_status": "Cluster 11" }, "geometry": { "type": "Point", "coordinates": [ -73.924007317968844, 40.737292358752107 ] } },
{ "type": "Feature", "properties": { "score": 74.364584563305243, "cluster_id": -1, "cluster_status": "Noise" }, "geometry": { "type": "Point", "coordinates": [ -73.900199890435914, 40.711509140034693 ] } },
{ "type": "Feature", "properties": { "score": 87.856470016337894, "cluster_id": -1, "cluster_status": "Noise" }, "geometry": { "type": "Point", "coordinates": [ -73.971865796956749, 40.731603603089596 ] } },
{ "type": "Feature", "properties": { "score": 97.549205754466257, "cluster_id": -1, "cluster_status": "Noise" }, "geometry": { "type": "Point", "coordinates": [ -73.933270776057554, 40.757584257621112 ] } },
{ "type": "Feature", "properties": { "score": 99.281082993627876, "cluster_id": -1, "cluster_status": "Noise" }, "geometry": { "type": "Point", "coordinates": [ -73.942605716650803, 40.750518345598387 ] } },
{ "type": "Feature", "properties": { "score": 83.416212233832908, "cluster_id": 7, "cluster_status": "Cluster 7" }, "geometry": { "type": "Point", "coordinates": [ -73.945999292683737, 40.744761917666473 ] } },
{ "type": "Feature", "properties": { "score": 90.730827978904699, "cluster_id": 12, "cluster_status": "Cluster 12" }, "geometry": { "type": "Point", "coordinates": [ -74.038785205243514, 40.732717311224761 ] } },
{ "type": "Feature", "properties": { "score": 88.41030024510701, "cluster_id": 10, "cluster_status": "Cluster 10" }, "geometry": { "type": "Point", "coordinates": [ -74.010029912873378, 40.778094099485806 ] } },
{ "type": "Feature", "properties": { "score": 79.594349701951046, "cluster_id": 15, "cluster_status": "Cluster 15" }, "geometry": { "type": "Point", "coordinates": [ -74.025726900525896, 40.705492589289697 ] } },
{ "type": "Feature", "properties": { "score": 83.503040974975704, "cluster_id": 18, "cluster_status": "Cluster 18" }, "geometry": { "type": "Point", "coordinates": [ -73.954932262373092, 40.73474853047388 ] } },
{ "type": "Feature", "properties": { "score": 85.249074654013612, "cluster_id": -1, "cluster_status": "Noise" }, "geometry": { "type": "Point", "coordinates": [ -73.962593343112658, 40.784731086126541 ] } },
{ "type": "Feature", "properties": { "score": 77.302786236455901, "cluster_id": 19, "cluster_status": "Cluster 19" }, "geometry": { "type": "Point", "coordinates": [ -73.947623865435446, 40.768616040180682 ] } },
{ "type": "Feature", "properties": { "score": 93.515399928107257, "cluster_id": 12, "cluster_status": "Cluster 12" }, "geometry": { "type": "Point", "coordinates": [ -74.040967692852092, 40.730162521279951 ] } },
{ "type": "Feature", "properties": { "score": 72.335130389270063, "cluster_id": 10, "cluster_status": "Cluster 10" }, "geometry": { "type": "Point", "coordinates": [ -74.014885961699889, 40.778183207896561 ] } },
{ "type": "Feature", "properties": { "score": 79.138354251933308, "cluster_id": -1, "cluster_status": "Noise" }, "geometry": { "type": "Point", "coordinates": [ -73.960451038149245, 40.703946036691761 ] } },
{ "type": "Feature", "properties": { "score": 87.647984731600843, "cluster_id": 1, "cluster_status": "Cluster 1" }, "geometry": { "type": "Point", "coordinates": [ -73.944302131936794, 40.776949896688024 ] } },
{ "type": "Feature", "properties": { "score": 82.12997266736636, "cluster_id": 5, "cluster_status": "Cluster 5" }, "geometry": { "type": "Point", "coordinates": [ -73.937881057896405, 40.729100945453851 ] } },
{ "type": "Feature", "properties": { "score": 91.312967712655166, "cluster_id": -1, "cluster_status": "Noise" }, "geometry": { "type": "Point", "coordinates": [ -73.902161835376091, 40.70615004465698 ] } },
{ "type": "Feature", "properties": { "score": 85.23931711993427, "cluster_id": 21, "cluster_status": "Cluster 21" }, "geometry": { "type": "Point", "coordinates": [ -74.042850827127808, 40.712831551918711 ] } },
{ "type": "Feature", "properties": { "score": 75.475885225045374, "cluster_id": 0, "cluster_status": "Cluster 0" }, "geometry": { "type": "Point", "coordinates": [ -73.983375511512719, 40.742363676888829 ] } },
{ "type": "Feature", "properties": { "score": 90.527999671403478, "cluster_id": -1, "cluster_status": "Noise" }, "geometry": { "type": "Point", "coordinates": [ -73.938200629365113, 40.713957663818128 ] } },
{ "type": "Feature", "properties": { "score": 96.87565645706006, "cluster_id": 7, "cluster_status": "Cluster 7" }, "geometry": { "type": "Point", "coordinates": [ -73.938240778282633, 40.74380368150436 ] } },
{ "type": "Feature", "properties": { "score": 93.145281848796813, "cluster_id": -1, "cluster_status": "Noise" }, "geometry": { "type": "Point", "coordinates": [ -73.93970408488191, 40.701144404166207 ] } },
{ "type": "Feature", "properties": { "score": 84.829078815315626, "cluster_id": 8, "cluster_status": "Cluster 8" }, "geometry": { "type": "Point", "coordinates": [ -73.990090930807696, 40.719509020978876 ] } },
{ "type": "Feature", "properties": { "score": 93.160926622011985, "cluster_id": -1, "cluster_status": "Noise" }, "geometry": { "type": "Point", "coordinates": [ -73.9169474922451, 40.786723264795008 ] } },
{ "type": "Feature", "properties": { "score": 86.52221987402524, "cluster_id": 11, "cluster_status": "Cluster 11" }, "geometry": { "type": "Point", "coordinates": [ -73.92197121642738, 40.739088454050766 ] } },
{ "type": "Feature", "properties": { "score": 91.198688437170517, "cluster_id": -1, "cluster_status": "Noise" }, "geometry": { "type": "Point", "coordinates": [ -74.01708603557779, 40.741006876585296 ] } },
{ "type": "Feature", "properties": { "score": 89.605404338184655, "cluster_id": 3, "cluster_status": "Cluster 3" }, "geometry": { "type": "Point", "coordinates": [ -74.015885784988996, 40.70822937334809 ] } },
{ "type": "Feature", "properties": { "score": 76.372673492403479, "cluster_id": -1, "cluster_status": "Noise" }, "geometry": { "type": "Point", "coordinates": [ -73.951008583858894, 40.731039352226432 ] } },
{ "type": "Feature", "properties": { "score": 80.967392060989326, "cluster_id": -1, "cluster_status": "Noise" }, "geometry": { "type": "Point", "coordinates": [ -74.035151203637227, 40.779572322027185 ] } },
{ "type": "Feature", "properties": { "score": 78.721472747043634, "cluster_id": 7, "cluster_status": "Cluster 7" }, "geometry": { "type": "Point", "coordinates": [ -73.943454340450032, 40.742571353159882 ] } },
{ "type": "Feature", "properties": { "score": 86.546557730008715, "cluster_id": 12, "cluster_status": "Cluster 12" }, "geometry": { "type": "Point", "coordinates": [ -74.036951094875221, 40.732277319684108 ] } },
{ "type": "Feature", "properties": { "score": 93.177078014608711, "cluster_id": -1, "cluster_status": "Noise" }, "geometry": { "type": "Point", "coordinates": [ -74.02011925398881, 40.72455111954757 ] } }
]
}
