{
"type": "FeatureCollection",
"name": "h3_bins",
"crs": { "type": "name", "properties": { "name": "urn:ogc:def:crs:OGC:1.3:CRS84" } },
"features": [
{ "type": "Feature", "properties": { "hex_id": "882a100d29fffff", "mean_score": 80.408484616097311 }, "geometry": { "type": "Polygon", "coordinates": [ [ [ -73.977244656705608, 40.751915444070626 ], [ -73.983624330016909, 40.750861995011547 ], [ -73.98558983083457, 40.746402560980236 ], [ -73.981176568235426, 40.742996907375691 ], [ -73.974797920658645, 40.744050136596215 ], [ -73.972831510058683, 40.748509239229854 ], [ -73.977244656705608, 40.751915444070626 ] ] ] } },
{ "type": "Feature", "properties": { "hex_id": "882a1072c5fffff", "mean_score": 69.728467727645267 }, "geometry": { "type": "Polygon", "coordinates": [ [ [ -74.010613924865353, 40.729862375606366 ], [ -74.016990019323032, 40.728807312695785 ], [ -74.018951481085722, 40.724348470224172 ], [ -74.014537758225813, 40.720945021334245 ], [ -74.008162688024711, 40.721999863802061 ], [ -74.006200316538838, 40.726458375572506 ], [ -74.010613924865353, 40.729862375606366 ] ] ] } },
{ "type": "Feature", "properties": { "hex_id": "882a1072d1fffff", "mean_score": 68.602491320704758 }, "geometry": { "type": "Polygon", "coordinates": [ [ [ -73.984142094799566, 40.709438208353788 ], [ -73.990515880589982, 40.708384831946553 ], [ -73.992478961471079, 40.703927609248808 ], [ -73.988069164976082, 40.700524093983084 ], [ -73.981696402960424, 40.701577250535841 ], [ -73.979732413776844, 40.706034142178815 ], [ -73.984142094799566, 40.709438208353788 ] ] ] } },
{ "type": "Feature", "properties": { "hex_id": "882a100dc1fffff", "mean_score": 55.572452713579459 }, "geometry": { "type": "Polygon", "coordinates": [ [ [ -73.924330133423837, 40.71104027410847 ], [ -73.930705176006811, 40.709990195215077 ], [ -73.932673905809835, 40.705534003262024 ], [ -73.92826850007971, 40.702128222275043 ], [ -73.921894482260313, 40.703178082506206 ], [ -73.919924845519589, 40.707633942356757 ], [ -73.924330133423837, 40.71104027410847 ] ] ] } },
{ "type": "Feature", "properties": { "hex_id": "882a100c21fffff", "mean_score": 81.60721263498705 }, "geometry": { "type": "Polygon", "coordinates": [ [ [ -73.910071100504695, 40.729916369371665 ], [ -73.916448952013113, 40.728866880442197 ], [ -73.918419803628154, 40.72440991616407 ], [ -73.914013711172899, 40.721002773235163 ], [ -73.907636885470424, 40.722052043734159 ], [ -73.90566512652957, 40.726508675562748 ], [ -73.910071100504695, 40.729916369371665 ] ] ] } },
{ "type": "Feature", "properties": { "hex_id": "882a100893fffff", "mean_score": 69.886614877832443 }, "geometry": { "type": "Polygon", "coordinates": [ [ [ -73.954641878814343, 40.776320688988555 ], [ -73.961025263117563, 40.775268233782647 ], [ -73.962993898030035, 40.770807880355171 ], [ -73.958580058939916, 40.767400314022737 ], [ -73.952197701786645, 40.768452549772846 ], [ -73.950228156686009, 40.772912571281225 ], [ -73.954641878814343, 40.776320688988555 ] ] ] } },
{ "type": "Feature", "properties": { "hex_id": "882a100f3dfffff", "mean_score": 72.491050547778826 }, "geometry": { "type": "Polygon", "coordinates": [ [ [ -73.913898230373505, 40.774758758183324 ], [ -73.920282109236837, 40.773708581557528 ], [ -73.922254485579487, 40.769249078531637 ], [ -73.917843892323489, 40.765840084721042 ], [ -73.911461041168266, 40.766890042712141 ], [ -73.909487755673567, 40.771349213118654 ], [ -73.913898230373505, 40.774758758183324 ] ] ] } },
{ "type": "Feature", "properties": { "hex_id": "882a1072abfffff", "mean_score": 92.142765536825095 }, "geometry": { "type": "Polygon", "coordinates": [ [ [ -74.033166277349792, 40.705459484649786 ], [ -74.03953866422755, 40.704403435164515 ], [ -74.041497001823458, 40.699945518332783 ], [ -74.037083861967616, 40.696543981136927 ], [ -74.030712497934132, 40.697599809799208 ], [ -74.028753251023844, 40.702057396450265 ], [ -74.033166277349792, 40.705459484649786 ] ] ] } },
{ "type": "Feature", "properties": { "hex_id": "882a100d35fffff", "mean_score": 76.724453067916528 }, "geometry": { "type": "Polygon", "coordinates": [ [ [ -73.980694930647815, 40.730674080877534 ], [ -73.987071658863542, 40.729620667846383 ], [ -73.989035949028278, 40.725162339028557 ], [ -73.98462442013124, 40.721757754438094 ], [ -73.978248716669469, 40.722810947622662 ], [ -73.97628351746279, 40.727268945214291 ], [ -73.980694930647815, 40.730674080877534 ] ] ] } },
{ "type": "Feature", "properties": { "hex_id": "882a100c6dfffff", "mean_score": 63.075217094100488 }, "geometry": { "type": "Polygon", "coordinates": [ [ [ -73.898234358392926, 40.756662155537718 ], [ -73.904616047643216, 40.755613039948827 ], [ -73.906589126810445, 40.751154826280668 ], [ -73.902181424916151, 40.747746060967707 ], [ -73.895800762822134, 40.748794958287348 ], [ -73.893826775578702, 40.753252839159416 ], [ -73.898234358392926, 40.756662155537718 ] ] ] } },
{ "type": "Feature", "properties": { "hex_id": "882a100dcdfffff", "mean_score": 83.997157399937606 }, "geometry": { "type": "Polygon", "coordinates": [ [ [ -73.926766604813565, 40.718903205013071 ], [ -73.933142672465877, 40.717852907386209 ], [ -73.935111504356612, 40.713396236451324 ], [ -73.930705176006811, 40.709990195215077 ], [ -73.924330133423837, 40.71104027410847 ], [ -73.922360394233493, 40.715496612941728 ], [ -73.926766604813565, 40.718903205013071 ] ] ] } },
{ "type": "Feature", "properties": { "hex_id": "882a1072dbfffff", "mean_score": 63.39404333232234 }, "geometry": { "type": "Polygon", "coordinates": [ [ [ -73.973358758907111, 40.707086895884807 ], [ -73.979732413776844, 40.706034142178815 ], [ -73.981696402960424, 40.701577250535841 ], [ -73.977287645340922, 40.698173443798851 ], [ -73.97091501430954, 40.699225977872807 ], [ -73.968950117171218, 40.703682538285854 ], [ -73.973358758907111, 40.707086895884807 ] ] ] } },
{ "type": "Feature", "properties": { "hex_id": "882a100dcbfffff", "mean_score": 76.401017960125927 }, "geometry": { "type": "Polygon", "coordinates": [ [ [ -73.913549936493581, 40.708683398680868 ], [ -73.919924845519589, 40.707633942356757 ], [ -73.921894482260313, 40.703178082506206 ], [ -73.917490116676291, 40.699772011227147 ], [ -73.911116232476076, 40.700821249111591 ], [ -73.909145689146271, 40.705276776684947 ], [ -73.913549936493581, 40.708683398680868 ] ] ] } },
{ "type": "Feature", "properties": { "hex_id": "882a100f33fffff", "mean_score": 73.272761054506503 }, "geometry": { "type": "Polygon", "coordinates": [ [ [ -73.909024673449423, 40.759022065332587 ], [ -73.91540649720352, 40.757972325904966 ], [ -73.917378667944647, 40.753513779615687 ], [ -73.912969923470314, 40.750105305345336 ], [ -73.906589126810445, 40.751154826280668 ], [ -73.904616047643216, 40.755613039948827 ], [ -73.909024673449423, 40.759022065332587 ] ] ] } },
{ "type": "Feature", "properties": { "hex_id": "882a100f01fffff", "mean_score": 88.291822138008229 }, "geometry": { "type": "Polygon", "coordinates": [ [ [ -73.897180001847104, 40.78577733642453 ], [ -73.90356566807661, 40.784727971681306 ], [ -73.905540069228138, 40.780268177659018 ], [ -73.901129713440767, 40.776858081317982 ], [ -73.894745075658363, 40.777907227730473 ], [ -73.892769765329021, 40.782366688784911 ], [ -73.897180001847104, 40.78577733642453 ] ] ] } },
{ "type": "Feature", "properties": { "hex_id": "882a1072d9fffff", "mean_score": 63.43278137424258 }, "geometry": { "type": "Polygon", "coordinates": [ [ [ -73.975803326224877, 40.714948552546552 ], [ -73.982178005238026, 40.713895579137052 ], [ -73.984142094799566, 40.709438208353788 ], [ -73.979732413776844, 40.706034142178815 ], [ -73.973358758907111, 40.707086895884807 ], [ -73.971393761028622, 40.71154393543933 ], [ -73.975803326224877, 40.714948552546552 ] ] ] } },
{ "type": "Feature", "properties": { "hex_id": "882a100d2bfffff", "mean_score": 80.70362439383787 }, "geometry": { "type": "Polygon", "coordinates": [ [ [ -73.974797920658645, 40.744050136596215 ], [ -73.981176568235426, 40.742996907375691 ], [ -73.98314196856704, 40.738537952075369 ], [ -73.978729630853209, 40.735132557364594 ], [ -73.972352008705172, 40.736185566818122 ], [ -73.97038569895436, 40.740644190719451 ], [ -73.974797920658645, 40.744050136596215 ] ] ] } },
{ "type": "Feature", "properties": { "hex_id": "882a10728dfffff", "mean_score": 76.862929249150511 }, "geometry": { "type": "Polygon", "coordinates": [ [ [ -74.016499120749486, 40.716486657916711 ], [ -74.022873296536901, 40.715431412831897 ], [ -74.024833650424853, 40.71097319802184 ], [ -74.020420737982363, 40.707570558795197 ], [ -74.014047585777433, 40.708625583358199 ], [ -74.012086322544249, 40.713083467639606 ], [ -74.016499120749486, 40.716486657916711 ] ] ] } },
{ "type": "Feature", "properties": { "hex_id": "882a107217fffff", "mean_score": 64.751060660976265 }, "geometry": { "type": "Polygon", "coordinates": [ [ [ -74.023858679482601, 40.740074307141967 ], [ -74.030235927846277, 40.739018400061092 ], [ -74.032196578362331, 40.734558748093669 ], [ -74.027780891060701, 40.731155333700926 ], [ -74.021404667194048, 40.732211020044645 ], [ -74.01944310624387, 40.736670341488164 ], [ -74.023858679482601, 40.740074307141967 ] ] ] } },
{ "type": "Feature", "properties": { "hex_id": "882a100999fffff", "mean_score": 59.315060109741268 }, "geometry": { "type": "Polygon", "coordinates": [ [ [ -74.024362664527516, 40.80617808459435 ], [ -74.030748889126485, 40.805121438872469 ], [ -74.03271225379487, 40.800658141076937 ], [ -74.028290306989931, 40.797251819833718 ], [ -74.021905109768795, 40.798308244617338 ], [ -74.01994083208713, 40.802771211552269 ], [ -74.024362664527516, 40.80617808459435 ] ] ] } },
{ "type": "Feature", "properties": { "hex_id": "882a100d45fffff", "mean_score": 71.824356446123318 }, "geometry": { "type": "Polygon", "coordinates": [ [ [ -73.952197701786645, 40.768452549772846 ], [ -73.958580058939916, 40.767400314022737 ], [ -73.960548592479626, 40.762940439000474 ], [ -73.956135678803221, 40.759533131618653 ], [ -73.949754348493357, 40.760585147984415 ], [ -73.947784905128927, 40.765044691086388 ], [ -73.952197701786645, 40.768452549772846 ] ] ] } },
{ "type": "Feature", "properties": { "hex_id": "882a1008a9fffff", "mean_score": 53.226805415615488 }, "geometry": { "type": "Polygon", "coordinates": [ [ [ -73.994394917926215, 40.806993232020758 ], [ -74.000781779951339, 40.805938242085567 ], [ -74.002747982738825, 40.801475459247705 ], [ -73.99832823594312, 40.798067997702447 ], [ -73.991942401796422, 40.799122767297348 ], [ -73.989975286679538, 40.803585218747706 ], [ -73.994394917926215, 40.806993232020758 ] ] ] } },
{ "type": "Feature", "properties": { "hex_id": "882a100de9fffff", "mean_score": 57.224715491905066 }, "geometry": { "type": "Polygon", "coordinates": [ [ [ -73.945894048720078, 40.715751285341696 ], [ -73.952269357036343, 40.714699961020415 ], [ -73.954236271918475, 40.710243105386844 ], [ -73.94982878623108, 40.706837905797478 ], [ -73.943454502553195, 40.707889011011396 ], [ -73.941486680036405, 40.712345534892158 ], [ -73.945894048720078, 40.715751285341696 ] ] ] } },
{ "type": "Feature", "properties": { "hex_id": "882a10720dfffff", "mean_score": 65.505666620297745 }, "geometry": { "type": "Polygon", "coordinates": [ [ [ -74.033682998611525, 40.771534823570185 ], [ -74.040064348015463, 40.770478032821963 ], [ -74.042025393309757, 40.766016465797016 ], [ -74.037606001200984, 40.762612020007225 ], [ -74.031225677515195, 40.763668589730749 ], [ -74.029263720332111, 40.768129826238592 ], [ -74.033682998611525, 40.771534823570185 ] ] ] } },
{ "type": "Feature", "properties": { "hex_id": "882a107251fffff", "mean_score": 63.115363088648358 }, "geometry": { "type": "Polygon", "coordinates": [ [ [ -74.00128501515357, 40.764485575770472 ], [ -74.007665975913952, 40.76343065837677 ], [ -74.009629755829167, 40.758970083431151 ], [ -74.005213485939279, 40.755564756894145 ], [ -73.998833551091181, 40.75661945393189 ], [ -73.996868860332853, 40.761079697832542 ], [ -74.00128501515357, 40.764485575770472 ] ] ] } },
{ "type": "Feature", "properties": { "hex_id": "882a100c25fffff", "mean_score": 44.800955221727264 }, "geometry": { "type": "Polygon", "coordinates": [ [ [ -73.920855967555994, 40.732274283607921 ], [ -73.927233952894966, 40.73122417153774 ], [ -73.929203896835048, 40.726766874984904 ], [ -73.924796763223398, 40.723360022747116 ], [ -73.918419803628154, 40.72440991616407 ], [ -73.916448952013113, 40.728866880442197 ], [ -73.920855967555994, 40.732274283607921 ] ] ] } },
{ "type": "Feature", "properties": { "hex_id": "882a100d67fffff", "mean_score": 93.28729685404133 }, "geometry": { "type": "Polygon", "coordinates": [ [ [ -73.979692217253685, 40.759781489005121 ], [ -73.986072916605409, 40.758727820035872 ], [ -73.988038517858129, 40.754267907355924 ], [ -73.983624330016909, 40.750861995011547 ], [ -73.977244656705608, 40.751915444070626 ], [ -73.975278145307357, 40.756375025354245 ], [ -73.979692217253685, 40.759781489005121 ] ] ] } },
{ "type": "Feature", "properties": { "hex_id": "882a100d19fffff", "mean_score": 79.421847237578959 }, "geometry": { "type": "Polygon", "coordinates": [ [ [ -73.931642009894162, 40.73463128378868 ], [ -73.938020128602901, 40.733580548481193 ], [ -73.939989164519005, 40.729122919828548 ], [ -73.935580989862586, 40.725716358553349 ], [ -73.929203896835048, 40.726766874984904 ], [ -73.927233952894966, 40.73122417153774 ], [ -73.931642009894162, 40.73463128378868 ] ] ] } },
{ "type": "Feature", "properties": { "hex_id": "882a100f63fffff", "mean_score": 70.750653529577022 }, "geometry": { "type": "Polygon", "coordinates": [ [ [ -73.910414650618762, 40.79600921535372 ], [ -73.916801480257618, 40.794959007350855 ], [ -73.918775074870211, 40.790498402455519 ], [ -73.914362749848664, 40.787088338324935 ], [ -73.907976948902203, 40.788138327702562 ], [ -73.906002444397686, 40.792598599806112 ], [ -73.910414650618762, 40.79600921535372 ] ] ] } },
{ "type": "Feature", "properties": { "hex_id": "882a100dedfffff", "mean_score": 46.8294896703907 }, "geometry": { "type": "Polygon", "coordinates": [ [ [ -73.956677765941947, 40.718105420411987 ], [ -73.963053206434139, 40.717053473232347 ], [ -73.965019213333335, 40.712596286020961 ], [ -73.960610687835299, 40.709191377537117 ], [ -73.954236271918475, 40.710243105386844 ], [ -73.952269357036343, 40.714699961020415 ], [ -73.956677765941947, 40.718105420411987 ] ] ] } },
{ "type": "Feature", "properties": { "hex_id": "882a1008b3fffff", "mean_score": 75.984298781848594 }, "geometry": { "type": "Polygon", "coordinates": [ [ [ -73.984589813485073, 40.775515790308461 ], [ -73.990972565835818, 40.774461681304018 ], [ -73.992938367805266, 40.770000811574157 ], [ -73.988522328408948, 40.766594382212254 ], [ -73.982140602710786, 40.76764827116326 ], [ -73.980173889868666, 40.772108809499585 ], [ -73.984589813485073, 40.775515790308461 ] ] ] } },
{ "type": "Feature", "properties": { "hex_id": "882a1072c9fffff", "mean_score": 64.082728516890441 }, "geometry": { "type": "Polygon", "coordinates": [ [ [ -73.991484112232001, 40.73302551141412 ], [ -73.997860971177161, 40.731971475014035 ], [ -73.999824351951759, 40.727512815145431 ], [ -73.995411783283316, 40.724108522697691 ], [ -73.989035949028278, 40.725162339028557 ], [ -73.987071658863542, 40.729620667846383 ], [ -73.991484112232001, 40.73302551141412 ] ] ] } },
{ "type": "Feature", "properties": { "hex_id": "882a1072d5fffff", "mean_score": 87.44844512337545 }, "geometry": { "type": "Polygon", "coordinates": [ [ [ -73.994926600786727, 40.711788606426545 ], [ -74.001300517037137, 40.710734607222356 ], [ -74.003262689268041, 40.706277053645081 ], [ -73.998851854010567, 40.702873830121526 ], [ -73.992478961471079, 40.703927609248808 ], [ -73.990515880589982, 40.708384831946553 ], [ -73.994926600786727, 40.711788606426545 ] ] ] } },
{ "type": "Feature", "properties": { "hex_id": "882a1072ebfffff", "mean_score": 56.185797468668426 }, "geometry": { "type": "Polygon", "coordinates": [ [ [ -74.018951481085722, 40.724348470224172 ], [ -74.025326680760344, 40.723293004545795 ], [ -74.027287133576024, 40.718834310601139 ], [ -74.022873296536901, 40.715431412831897 ], [ -74.016499120749486, 40.716486657916711 ], [ -74.014537758225813, 40.720945021334245 ], [ -74.018951481085722, 40.724348470224172 ] ] ] } },
{ "type": "Feature", "properties": { "hex_id": "882a1072a1fffff", "mean_score": 73.940575823776896 }, "geometry": { "type": "Polygon", "coordinates": [ [ [ -74.043952728563511, 40.70780523076256 ], [ -74.050325243725027, 40.706748558448389 ], [ -74.05228267165964, 40.70229031161162 ], [ -74.047868494205645, 40.698889067063931 ], [ -74.041497001823458, 40.699945518332783 ], [ -74.03953866422755, 40.704403435164515 ], [ -74.043952728563511, 40.70780523076256 ] ] ] } },
{ "type": "Feature", "properties": { "hex_id": "882a1008d3fffff", "mean_score": 77.284830105916058 }, "geometry": { "type": "Polygon", "coordinates": [ [ [ -73.940374861248131, 40.795215800909162 ], [ -73.946761063571074, 40.794163937046704 ], [ -73.948731824506723, 40.789702812905603 ], [ -73.944317293811537, 40.786293884863589 ], [ -73.937932119685513, 40.787345529502218 ], [ -73.935960448170377, 40.79180632137674 ], [ -73.940374861248131, 40.795215800909162 ] ] ] } },
{ "type": "Feature", "properties": { "hex_id": "882a100883fffff", "mean_score": 86.6517504978559 }, "geometry": { "type": "Polygon", "coordinates": [ [ [ -73.970334762702407, 40.794414626682894 ], [ -73.976720334229967, 40.793361107359445 ], [ -73.978688260470221, 40.788899465628489 ], [ -73.974271526560997, 40.785491674931819 ], [ -73.967886982733233, 40.786544974433205 ], [ -73.965918145227434, 40.791006284423297 ], [ -73.970334762702407, 40.794414626682894 ] ] ] } },
{ "type": "Feature", "properties": { "hex_id": "882a107231fffff", "mean_score": 59.578413167279209 }, "geometry": { "type": "Polygon", "coordinates": [ [ [ -74.04544757064285, 40.744768920724297 ], [ -74.051825076308972, 40.743711766045905 ], [ -74.053783904913502, 40.739251453558289 ], [ -74.049366139093394, 40.735848625891037 ], [ -74.042989657794294, 40.73690555938699 ], [ -74.041029918060133, 40.741365541702478 ], [ -74.04544757064285, 40.744768920724297 ] ] ] } },
{ "type": "Feature", "properties": { "hex_id": "882a100de1fffff", "mean_score": 73.955481571656478 }, "geometry": { "type": "Polygon", "coordinates": [ [ [ -73.954236271918475, 40.710243105386844 ], [ -73.960610687835299, 40.709191377537117 ], [ -73.962576593682741, 40.704734669386447 ], [ -73.958168991346213, 40.701330020634501 ], [ -73.951795599699395, 40.702381529225704 ], [ -73.94982878623108, 40.706837905797478 ], [ -73.954236271918475, 40.710243105386844 ] ] ] } },
{ "type": "Feature", "properties": { "hex_id": "882a100d25fffff", "mean_score": 62.960834635797724 }, "geometry": { "type": "Polygon", "coordinates": [ [ [ -73.99638291285558, 40.748754069102013 ], [ -74.002761822097142, 40.747699592348496 ], [ -74.004725402544778, 40.743239974776714 ], [ -74.000310983979134, 40.739835164976348 ], [ -73.993933100038532, 40.740889421517309 ], [ -73.991968609474668, 40.745348708041142 ], [ -73.99638291285558, 40.748754069102013 ] ] ] } },
{ "type": "Feature", "properties": { "hex_id": "882a100d47fffff", "mean_score": 98.178271188070354 }, "geometry": { "type": "Polygon", "coordinates": [ [ [ -73.949754348493357, 40.760585147984415 ], [ -73.956135678803221, 40.759533131618653 ], [ -73.958104110919564, 40.755073735084089 ], [ -73.953692122299884, 40.751666686806807 ], [ -73.947311818527027, 40.752718483859674 ], [ -73.945342476949207, 40.757177548472782 ], [ -73.949754348493357, 40.760585147984415 ] ] ] } },
{ "type": "Feature", "properties": { "hex_id": "882a10721dfffff", "mean_score": 84.2543151295733 }, "geometry": { "type": "Polygon", "coordinates": [ [ [ -74.017972590131393, 40.753454335089799 ], [ -74.024351759189656, 40.752398610420322 ], [ -74.0263135183598, 40.747938331279805 ], [ -74.02189701939659, 40.74453410747514 ], [ -74.015518875510452, 40.745589611486523 ], [ -74.013556205527422, 40.750049559930559 ], [ -74.017972590131393, 40.753454335089799 ] ] ] } },
{ "type": "Feature", "properties": { "hex_id": "882a10725bfffff", "mean_score": 73.076146176428992 }, "geometry": { "type": "Polygon", "coordinates": [ [ [ -73.990488030045611, 40.762133990966078 ], [ -73.996868860332853, 40.761079697832542 ], [ -73.998833551091181, 40.75661945393189 ], [ -73.994418322168883, 40.753213834355449 ], [ -73.988038517858129, 40.754267907355924 ], [ -73.986072916605409, 40.758727820035872 ], [ -73.990488030045611, 40.762133990966078 ] ] ] } },
{ "type": "Feature", "properties": { "hex_id": "882a100891fffff", "mean_score": 60.752835880172825 }, "geometry": { "type": "Polygon", "coordinates": [ [ [ -73.957086879984203, 40.784189565394996 ], [ -73.963471291744042, 40.783136890661773 ], [ -73.965440027978559, 40.778676058911657 ], [ -73.961025263117563, 40.775268233782647 ], [ -73.954641878814343, 40.776320688988555 ], [ -73.952672232028007, 40.780781188820811 ], [ -73.957086879984203, 40.784189565394996 ] ] ] } },
{ "type": "Feature", "properties": { "hex_id": "882a1072e1fffff", "mean_score": 63.04945883163942 }, "geometry": { "type": "Polygon", "coordinates": [ [ [ -74.029741442752453, 40.726696160703781 ], [ -74.036116771439069, 40.725640071719496 ], [ -74.038076314199259, 40.721181047423414 ], [ -74.033661438440134, 40.71777844243293 ], [ -74.027287133576024, 40.718834310601139 ], [ -74.025326680760344, 40.723293004545795 ], [ -74.029741442752453, 40.726696160703781 ] ] ] } },
{ "type": "Feature", "properties": { "hex_id": "882a107259fffff", "mean_score": 71.433840620670068 }, "geometry": { "type": "Polygon", "coordinates": [ [ [ -73.992938367805266, 40.770000811574157 ], [ -73.999320224374898, 40.768946298235868 ], [ -74.00128501515357, 40.764485575770472 ], [ -73.996868860332853, 40.761079697832542 ], [ -73.990488030045611, 40.762133990966078 ], [ -73.988522328408948, 40.766594382212254 ], [ -73.992938367805266, 40.770000811574157 ] ] ] } },
{ "type": "Feature", "properties": { "hex_id": "882a100d0bfffff", "mean_score": 80.943105037593511 }, "geometry": { "type": "Polygon", "coordinates": [ [ [ -73.944870111480441, 40.744852557634822 ], [ -73.951249389022607, 40.743800979823412 ], [ -73.953217618140584, 40.73934254051138 ], [ -73.948807478564277, 40.735936010904531 ], [ -73.942429226946672, 40.736987369545844 ], [ -73.940460089093094, 40.741445476934189 ], [ -73.944870111480441, 40.744852557634822 ] ] ] } },
{ "type": "Feature", "properties": { "hex_id": "882a100895fffff", "mean_score": 46.953117313326338 }, "geometry": { "type": "Polygon", "coordinates": [ [ [ -73.967886982733233, 40.786544974433205 ], [ -73.974271526560997, 40.785491674931819 ], [ -73.976239351893994, 40.781030511439496 ], [ -73.971823544413212, 40.777622979160753 ], [ -73.965440027978559, 40.778676058911657 ], [ -73.963471291744042, 40.783136890661773 ], [ -73.967886982733233, 40.786544974433205 ] ] ] } },
{ "type": "Feature", "properties": { "hex_id": "882a10721bfffff", "mean_score": 53.920602216338104 }, "geometry": { "type": "Polygon", "coordinates": [ [ [ -74.004725402544778, 40.743239974776714 ], [ -74.01110341668911, 40.742185094548347 ], [ -74.013065987224564, 40.737725624913246 ], [ -74.008651453828989, 40.73432136635023 ], [ -74.002274464615894, 40.735376026215022 ], [ -74.000310983979134, 40.739835164976348 ], [ -74.004725402544778, 40.743239974776714 ] ] ] } },
{ "type": "Feature", "properties": { "hex_id": "882a100d17fffff", "mean_score": 56.200624771215615 }, "geometry": { "type": "Polygon", "coordinates": [ [ [ -73.948334416436083, 40.723614298525398 ], [ -73.954710749696289, 40.722562755025407 ], [ -73.956677765941947, 40.718105420411987 ], [ -73.952269357036343, 40.714699961020415 ], [ -73.945894048720078, 40.715751285341696 ], [ -73.943926124477599, 40.720208288203345 ], [ -73.948334416436083, 40.723614298525398 ] ] ] } },
{ "type": "Feature", "properties": { "hex_id": "882a100dc9fffff", "mean_score": 85.16917232614334 }, "geometry": { "type": "Polygon", "coordinates": [ [ [ -73.915984460075848, 40.71654628777668 ], [ -73.922360394233493, 40.715496612941728 ], [ -73.924330133423837, 40.71104027410847 ], [ -73.919924845519589, 40.707633942356757 ], [ -73.913549936493581, 40.708683398680868 ], [ -73.911579290352392, 40.713139405237726 ], [ -73.915984460075848, 40.71654628777668 ] ] ] } },
{ "type": "Feature", "properties": { "hex_id": "882a10720bfffff", "mean_score": 68.961627947884821 }, "geometry": { "type": "Polygon", "coordinates": [ [ [ -74.020427131496007, 40.761319795486472 ], [ -74.026807326031815, 40.760263850087085 ], [ -74.028769184234349, 40.755803092221647 ], [ -74.024351759189656, 40.752398610420322 ], [ -74.017972590131393, 40.753454335089799 ], [ -74.016009820752345, 40.757914762260405 ], [ -74.020427131496007, 40.761319795486472 ] ] ] } },
{ "type": "Feature", "properties": { "hex_id": "882a100f2bfffff", "mean_score": 67.94316830931389 }, "geometry": { "type": "Polygon", "coordinates": [ [ [ -73.916336241471825, 40.782628211509923 ], [ -73.922721148350405, 40.781577816178157 ], [ -73.924693627418918, 40.777117834907685 ], [ -73.920282109236837, 40.773708581557528 ], [ -73.913898230373505, 40.774758758183324 ], [ -73.911924841789656, 40.779218406835376 ], [ -73.916336241471825, 40.782628211509923 ] ] ] } },
{ "type": "Feature", "properties": { "hex_id": "882a1008a7fffff", "mean_score": 71.137869700590159 }, "geometry": { "type": "Polygon", "coordinates": [ [ [ -74.011099137845605, 40.795957428474928 ], [ -74.01748420531483, 40.794901628939535 ], [ -74.019448383546631, 40.790439140236963 ], [ -74.01502840672093, 40.787032782078214 ], [ -74.008644366388111, 40.788088360970463 ], [ -74.006679275856953, 40.792550518634471 ], [ -74.011099137845605, 40.795957428474928 ] ] ] } },
{ "type": "Feature", "properties": { "hex_id": "882a100c2dfffff", "mean_score": 69.152693984657802 }, "geometry": { "type": "Polygon", "coordinates": [ [ [ -73.912506135657964, 40.737781434054718 ], [ -73.918885013278626, 40.736731726623624 ], [ -73.920855967555994, 40.732274283607921 ], [ -73.916448952013113, 40.728866880442197 ], [ -73.910071100504695, 40.729916369371665 ], [ -73.908099238539279, 40.734373479938654 ], [ -73.912506135657964, 40.737781434054718 ] ] ] } },
{ "type": "Feature", "properties": { "hex_id": "882a1008b9fffff", "mean_score": 72.698997198018418 }, "geometry": { "type": "Polygon", "coordinates": [ [ [ -73.978688260470221, 40.788899465628489 ], [ -73.985072935903077, 40.787845541262712 ], [ -73.987039849984924, 40.783384046203906 ], [ -73.982622999997517, 40.779976807047333 ], [ -73.976239351893994, 40.781030511439496 ], [ -73.974271526560997, 40.785491674931819 ], [ -73.978688260470221, 40.788899465628489 ] ] ] } },
{ "type": "Feature", "properties": { "hex_id": "882a100f31fffff", "mean_score": 53.25554582306944 }, "geometry": { "type": "Polygon", "coordinates": [ [ [ -73.911461041168266, 40.766890042712141 ], [ -73.917843892323489, 40.765840084721042 ], [ -73.919816165890325, 40.761381060022252 ], [ -73.91540649720352, 40.757972325904966 ], [ -73.909024673449423, 40.759022065332587 ], [ -73.907051491093597, 40.763480757411109 ], [ -73.911461041168266, 40.766890042712141 ] ] ] } },
{ "type": "Feature", "properties": { "hex_id": "882a100993fffff", "mean_score": 65.384635622635798 }, "geometry": { "type": "Polygon", "coordinates": [ [ [ -74.03025357257313, 40.792789000268783 ], [ -74.036637872075886, 40.791732171230819 ], [ -74.038600125888891, 40.787269499291433 ], [ -74.034178992944462, 40.783863987047773 ], [ -74.027795720142208, 40.784920595068201 ], [ -74.025832553696148, 40.789382936319676 ], [ -74.03025357257313, 40.792789000268783 ] ] ] } },
{ "type": "Feature", "properties": { "hex_id": "882a107201fffff", "mean_score": 97.532364397728543 }, "geometry": { "type": "Polygon", "coordinates": [ [ [ -74.031225677515195, 40.763668589730749 ], [ -74.037606001200984, 40.762612020007225 ], [ -74.039566947878697, 40.758150931622957 ], [ -74.035148482507481, 40.754746743450887 ], [ -74.028769184234349, 40.755803092221647 ], [ -74.026807326031815, 40.760263850087085 ], [ -74.031225677515195, 40.763668589730749 ] ] ] } },
{ "type": "Feature", "properties": { "hex_id": "882a1072cbfffff", "mean_score": 80.140761821060835 }, "geometry": { "type": "Polygon", "coordinates": [ [ [ -73.989035949028278, 40.725162339028557 ], [ -73.995411783283316, 40.724108522697691 ], [ -73.997375064144535, 40.719650341803977 ], [ -73.992963419890046, 40.716246308263273 ], [ -73.986588610019851, 40.717299904596537 ], [ -73.98462442013124, 40.721757754438094 ], [ -73.989035949028278, 40.725162339028557 ] ] ] } },
{ "type": "Feature", "properties": { "hex_id": "882a10089dfffff", "mean_score": 73.252829974692503 }, "geometry": { "type": "Polygon", "coordinates": [ [ [ -73.959532705704206, 40.79205917875538 ], [ -73.965918145227434, 40.791006284423297 ], [ -73.967886982733233, 40.786544974433205 ], [ -73.963471291744042, 40.783136890661773 ], [ -73.957086879984203, 40.784189565394996 ], [ -73.95511713156273, 40.788650543468513 ], [ -73.959532705704206, 40.79205917875538 ] ] ] } },
{ "type": "Feature", "properties": { "hex_id": "882a100d41fffff", "mean_score": 75.949193856727689 }, "geometry": { "type": "Polygon", "coordinates": [ [ [ -73.941402680632692, 40.766096302610975 ], [ -73.947784905128927, 40.765044691086388 ], [ -73.949754348493357, 40.760585147984415 ], [ -73.945342476949207, 40.757177548472782 ], [ -73.938961279359475, 40.758228940836048 ], [ -73.936990926519826, 40.762688151842347 ], [ -73.941402680632692, 40.766096302610975 ] ] ] } },
{ "type": "Feature", "properties": { "hex_id": "882a1072c7fffff", "mean_score": 65.265771852963681 }, "geometry": { "type": "Polygon", "coordinates": [ [ [ -74.008162688024711, 40.721999863802061 ], [ -74.014537758225813, 40.720945021334245 ], [ -74.016499120749486, 40.716486657916711 ], [ -74.012086322544249, 40.713083467639606 ], [ -74.005712276294801, 40.714138089736359 ], [ -74.003750004410762, 40.718596122451238 ], [ -74.008162688024711, 40.721999863802061 ] ] ] } },
{ "type": "Feature", "properties": { "hex_id": "882a100c27fffff", "mean_score": 57.050432550730108 }, "geometry": { "type": "Polygon", "coordinates": [ [ [ -73.918419803628154, 40.72440991616407 ], [ -73.924796763223398, 40.723360022747116 ], [ -73.926766604813565, 40.718903205013071 ], [ -73.922360394233493, 40.715496612941728 ], [ -73.915984460075848, 40.71654628777668 ], [ -73.914013711172899, 40.721002773235163 ], [ -73.918419803628154, 40.72440991616407 ] ] ] } },
{ "type": "Feature", "properties": { "hex_id": "882a1072e9fffff", "mean_score": 74.785780266879854 }, "geometry": { "type": "Polygon", "coordinates": [ [ [ -74.021404667194048, 40.732211020044645 ], [ -74.027780891060701, 40.731155333700926 ], [ -74.029741442752453, 40.726696160703781 ], [ -74.025326680760344, 40.723293004545795 ], [ -74.018951481085722, 40.724348470224172 ], [ -74.016990019323032, 40.728807312695785 ], [ -74.021404667194048, 40.732211020044645 ] ] ] } },
{ "type": "Feature", "properties": { "hex_id": "882a100f29fffff", "mean_score": 81.169162021904825 }, "geometry": { "type": "Polygon", "coordinates": [ [ [ -73.918775074870211, 40.790498402455519 ], [ -73.925161010071335, 40.789447788346472 ], [ -73.927133591815661, 40.784987328914021 ], [ -73.922721148350405, 40.781577816178157 ], [ -73.916336241471825, 40.782628211509923 ], [ -73.914362749848664, 40.787088338324935 ], [ -73.918775074870211, 40.790498402455519 ] ] ] } },
{ "type": "Feature", "properties": { "hex_id": "882a100de5fffff", "mean_score": 71.627615758381225 }, "geometry": { "type": "Polygon", "coordinates": [ [ [ -73.965019213333335, 40.712596286020961 ], [ -73.971393761028622, 40.71154393543933 ], [ -73.973358758907111, 40.707086895884807 ], [ -73.968950117171218, 40.703682538285854 ], [ -73.962576593682741, 40.704734669386447 ], [ -73.960610687835299, 40.709191377537117 ], [ -73.965019213333335, 40.712596286020961 ] ] ] } },
{ "type": "Feature", "properties": { "hex_id": "882a1008d7fffff", "mean_score": 62.327057948241944 }, "geometry": { "type": "Polygon", "coordinates": [ [ [ -73.951176520508454, 40.797573123871665 ], [ -73.957562855698228, 40.796520634987452 ], [ -73.959532705704206, 40.79205917875538 ], [ -73.95511713156273, 40.788650543468513 ], [ -73.948731824506723, 40.789702812905603 ], [ -73.946761063571074, 40.794163937046704 ], [ -73.951176520508454, 40.797573123871665 ] ] ] } },
{ "type": "Feature", "properties": { "hex_id": "882a107209fffff", "mean_score": 71.080913658339199 }, "geometry": { "type": "Polygon", "coordinates": [ [ [ -74.02288250001321, 40.769185992439795 ], [ -74.029263720332111, 40.768129826238592 ], [ -74.031225677515195, 40.763668589730749 ], [ -74.026807326031815, 40.760263850087085 ], [ -74.020427131496007, 40.761319795486472 ], [ -74.018464262772596, 40.765780701301182 ], [ -74.02288250001321, 40.769185992439795 ] ] ] } },
{ "type": "Feature", "properties": { "hex_id": "882a107245fffff", "mean_score": 74.474770739446413 }, "geometry": { "type": "Polygon", "coordinates": [ [ [ -74.027795720142208, 40.784920595068201 ], [ -74.034178992944462, 40.783863987047773 ], [ -74.036141147932867, 40.779401793502856 ], [ -74.031720942499803, 40.775996538637898 ], [ -74.025338696092135, 40.777052925712745 ], [ -74.023375628835126, 40.781514788567975 ], [ -74.027795720142208, 40.784920595068201 ] ] ] } },
{ "type": "Feature", "properties": { "hex_id": "882a107215fffff", "mean_score": 61.746993762945408 }, "geometry": { "type": "Polygon", "coordinates": [ [ [ -74.0263135183598, 40.747938331279805 ], [ -74.032691791525593, 40.74688220338993 ], [ -74.034652540814122, 40.742422072534502 ], [ -74.030235927846277, 40.739018400061092 ], [ -74.023858679482601, 40.740074307141967 ], [ -74.02189701939659, 40.74453410747514 ], [ -74.0263135183598, 40.747938331279805 ] ] ] } },
{ "type": "Feature", "properties": { "hex_id": "882a100d5dfffff", "mean_score": 72.063729758700532 }, "geometry": { "type": "Polygon", "coordinates": [ [ [ -73.928169385652041, 40.755871817923676 ], [ -73.934550450059945, 40.754821049466379 ], [ -73.936520700749867, 40.750362316950032 ], [ -73.932110795906937, 40.746954685133026 ], [ -73.925730758161762, 40.74800523472333 ], [ -73.923759598709211, 40.752463634967746 ], [ -73.928169385652041, 40.755871817923676 ] ] ] } },
{ "type": "Feature", "properties": { "hex_id": "882a100de7fffff", "mean_score": 87.545073441722025 }, "geometry": { "type": "Polygon", "coordinates": [ [ [ -73.962576593682741, 40.704734669386447 ], [ -73.968950117171218, 40.703682538285854 ], [ -73.97091501430954, 40.699225977872807 ], [ -73.966507295678241, 40.695821879935451 ], [ -73.960134796091452, 40.696873791626459 ], [ -73.958168991346213, 40.701330020634501 ], [ -73.962576593682741, 40.704734669386447 ] ] ] } },
{ "type": "Feature", "properties": { "hex_id": "882a100d31fffff", "mean_score": 69.263877006864021 }, "geometry": { "type": "Polygon", "coordinates": [ [ [ -73.969906920437822, 40.728321734972347 ], [ -73.97628351746279, 40.727268945214291 ], [ -73.978248716669469, 40.722810947622662 ], [ -73.973838227656913, 40.719406071160641 ], [ -73.967462655449495, 40.720458641294748 ], [ -73.965496547549122, 40.724916307484882 ], [ -73.969906920437822, 40.728321734972347 ] ] ] } },
{ "type": "Feature", "properties": { "hex_id": "882a100d59fffff", "mean_score": 61.30478567941217 }, "geometry": { "type": "Polygon", "coordinates": [ [ [ -73.917378667944647, 40.753513779615687 ], [ -73.923759598709211, 40.752463634967746 ], [ -73.925730758161762, 40.74800523472333 ], [ -73.921321895375272, 40.744597311544005 ], [ -73.914941991335951, 40.745647237547921 ], [ -73.912969923470314, 40.750105305345336 ], [ -73.917378667944647, 40.753513779615687 ] ] ] } },
{ "type": "Feature", "properties": { "hex_id": "882a100f2dfffff", "mean_score": 61.846970321552924 }, "geometry": { "type": "Polygon", "coordinates": [ [ [ -73.929574379177012, 40.792857560314104 ], [ -73.935960448170377, 40.79180632137674 ], [ -73.937932119685513, 40.787345529502218 ], [ -73.933518632549166, 40.783936308977211 ], [ -73.927133591815661, 40.784987328914021 ], [ -73.925161010071335, 40.789447788346472 ], [ -73.929574379177012, 40.792857560314104 ] ] ] } },
{ "type": "Feature", "properties": { "hex_id": "882a107257fffff", "mean_score": 63.849913952862778 }, "geometry": { "type": "Polygon", "coordinates": [ [ [ -74.009629755829167, 40.758970083431151 ], [ -74.016009820752345, 40.757914762260405 ], [ -74.017972590131393, 40.753454335089799 ], [ -74.013556205527422, 40.750049559930559 ], [ -74.007177166146406, 40.751104660594244 ], [ -74.005213485939279, 40.755564756894145 ], [ -74.009629755829167, 40.758970083431151 ] ] ] } },
{ "type": "Feature", "properties": { "hex_id": "882a107219fffff", "mean_score": 46.161456771516725 }, "geometry": { "type": "Polygon", "coordinates": [ [ [ -74.007177166146406, 40.751104660594244 ], [ -74.013556205527422, 40.750049559930559 ], [ -74.015518875510452, 40.745589611486523 ], [ -74.01110341668911, 40.742185094548347 ], [ -74.004725402544778, 40.743239974776714 ], [ -74.002761822097142, 40.747699592348496 ], [ -74.007177166146406, 40.751104660594244 ] ] ] } },
{ "type": "Feature", "properties": { "hex_id": "882a107239fffff", "mean_score": 62.8688082034978 }, "geometry": { "type": "Polygon", "coordinates": [ [ [ -74.037109330516586, 40.750286133789821 ], [ -74.043487732499756, 40.749229381926078 ], [ -74.04544757064285, 40.744768920724297 ], [ -74.041029918060133, 40.741365541702478 ], [ -74.034652540814122, 40.742422072534502 ], [ -74.032691791525593, 40.74688220338993 ], [ -74.037109330516586, 40.750286133789821 ] ] ] } },
{ "type": "Feature", "properties": { "hex_id": "882a10089bfffff", "mean_score": 76.285651172424764 }, "geometry": { "type": "Polygon", "coordinates": [ [ [ -73.946287952798755, 40.781833238882278 ], [ -73.952672232028007, 40.780781188820811 ], [ -73.954641878814343, 40.776320688988555 ], [ -73.950228156686009, 40.772912571281225 ], [ -73.943844904976629, 40.773964402038523 ], [ -73.941874347988261, 40.778424569777385 ], [ -73.946287952798755, 40.781833238882278 ] ] ] } },
{ "type": "Feature", "properties": { "hex_id": "882a100d57fffff", "mean_score": 60.805036752055258 }, "geometry": { "type": "Polygon", "coordinates": [ [ [ -73.934080944396968, 40.742496431188961 ], [ -73.940460089093094, 40.741445476934189 ], [ -73.942429226946672, 40.736987369545844 ], [ -73.938020128602901, 40.733580548481193 ], [ -73.931642009894162, 40.73463128378868 ], [ -73.929671963654087, 40.739089059078218 ], [ -73.934080944396968, 40.742496431188961 ] ] ] } },
{ "type": "Feature", "properties": { "hex_id": "882a100f27fffff", "mean_score": 74.536427500582633 }, "geometry": { "type": "Polygon", "coordinates": [ [ [ -73.935490201752103, 40.779475995263617 ], [ -73.941874347988261, 40.778424569777385 ], [ -73.943844904976629, 40.773964402038523 ], [ -73.939432225693537, 40.770555992024789 ], [ -73.933049107040233, 40.771607198430011 ], [ -73.931077640199732, 40.776067033900048 ], [ -73.935490201752103, 40.779475995263617 ] ] ] } },
{ "type": "Feature", "properties": { "hex_id": "882a100c37fffff", "mean_score": 69.247672257759831 }, "geometry": { "type": "Polygon", "coordinates": [ [ [ -73.902770914137236, 40.706325610536425 ], [ -73.909145689146271, 40.705276776684947 ], [ -73.911116232476076, 40.700821249111591 ], [ -73.906712907149412, 40.697414887811668 ], [ -73.900339157028156, 40.698463503445986 ], [ -73.89836770745795, 40.702918698567593 ], [ -73.902770914137236, 40.706325610536425 ] ] ] } },
{ "type": "Feature", "properties": { "hex_id": "882a100d27fffff", "mean_score": 58.703156136443553 }, "geometry": { "type": "Polygon", "coordinates": [ [ [ -73.993933100038532, 40.740889421517309 ], [ -74.000310983979134, 40.739835164976348 ], [ -74.002274464615894, 40.735376026215022 ], [ -73.997860971177161, 40.731971475014035 ], [ -73.991484112232001, 40.73302551141412 ], [ -73.989519721842157, 40.737484319126068 ], [ -73.993933100038532, 40.740889421517309 ] ] ] } },
{ "type": "Feature", "properties": { "hex_id": "882a100f67fffff", "mean_score": 60.390054819301795 }, "geometry": { "type": "Polygon", "coordinates": [ [ [ -73.921214730975933, 40.798369330783501 ], [ -73.927601694806967, 40.797318497825877 ], [ -73.929574379177012, 40.792857560314104 ], [ -73.925161010071335, 40.789447788346472 ], [ -73.918775074870211, 40.790498402455519 ], [ -73.916801480257618, 40.794959007350855 ], [ -73.921214730975933, 40.798369330783501 ] ] ] } },
{ "type": "Feature", "properties": { "hex_id": "882a107213fffff", "mean_score": 48.714740350447848 }, "geometry": { "type": "Polygon", "coordinates": [ [ [ -74.013065987224564, 40.737725624913246 ], [ -74.01944310624387, 40.736670341488164 ], [ -74.021404667194048, 40.732211020044645 ], [ -74.016990019323032, 40.728807312695785 ], [ -74.010613924865353, 40.729862375606366 ], [ -74.008651453828989, 40.73432136635023 ], [ -74.013065987224564, 40.737725624913246 ] ] ] } },
{ "type": "Feature", "properties": { "hex_id": "882a100d2dfffff", "mean_score": 68.824994686750244 }, "geometry": { "type": "Polygon", "coordinates": [ [ [ -73.988038517858129, 40.754267907355924 ], [ -73.994418322168883, 40.753213834355449 ], [ -73.99638291285558, 40.748754069102013 ], [ -73.991968609474668, 40.745348708041142 ], [ -73.98558983083457, 40.746402560980236 ], [ -73.983624330016909, 40.750861995011547 ], [ -73.988038517858129, 40.754267907355924 ] ] ] } },
{ "type": "Feature", "properties": { "hex_id": "882a100dc5fffff", "mean_score": 44.761315927224985 }, "geometry": { "type": "Polygon", "coordinates": [ [ [ -73.935111504356612, 40.713396236451324 ], [ -73.941486680036405, 40.712345534892158 ], [ -73.943454502553195, 40.707889011011396 ], [ -73.939048056788536, 40.704483520587665 ], [ -73.932673905809835, 40.705534003262024 ], [ -73.930705176006811, 40.709990195215077 ], [ -73.935111504356612, 40.713396236451324 ] ] ] } },
{ "type": "Feature", "properties": { "hex_id": "882a100dc3fffff", "mean_score": 92.304764496915624 }, "geometry": { "type": "Polygon", "coordinates": [ [ [ -73.921894482260313, 40.703178082506206 ], [ -73.92826850007971, 40.702128222275043 ], [ -73.930237127745073, 40.697672509385718 ], [ -73.925832644279112, 40.694266988801054 ], [ -73.919459650917645, 40.69531663044117 ], [ -73.917490116676291, 40.699772011227147 ], [ -73.921894482260313, 40.703178082506206 ] ] ] } },
{ "type": "Feature", "properties": { "hex_id": "882a107205fffff", "mean_score": 60.533528154185696 }, "geometry": { "type": "Polygon", "coordinates": [ [ [ -74.042025393309757, 40.766016465797016 ], [ -74.048405845682709, 40.764959271654 ], [ -74.050365880487377, 40.760497852926974 ], [ -74.045946374904148, 40.757093958655545 ], [ -74.039566947878697, 40.758150931622957 ], [ -74.037606001200984, 40.762612020007225 ], [ -74.042025393309757, 40.766016465797016 ] ] ] } },
{ "type": "Feature", "properties": { "hex_id": "882a1072e3fffff", "mean_score": 50.857025483159305 }, "geometry": { "type": "Polygon", "coordinates": [ [ [ -74.027287133576024, 40.718834310601139 ], [ -74.033661438440134, 40.71777844243293 ], [ -74.035620882635499, 40.713319897269812 ], [ -74.031206931771081, 40.709917550597879 ], [ -74.024833650424853, 40.71097319802184 ], [ -74.022873296536901, 40.715431412831897 ], [ -74.027287133576024, 40.718834310601139 ] ] ] } },
{ "type": "Feature", "properties": { "hex_id": "882a10728bfffff", "mean_score": 88.959493096636095 }, "geometry": { "type": "Polygon", "coordinates": [ [ [ -74.003262689268041, 40.706277053645081 ], [ -74.009635711870672, 40.705222651847656 ], [ -74.01159687576191, 40.700765246784407 ], [ -74.0071859257976, 40.697362574194102 ], [ -74.00081392653712, 40.698416755763823 ], [ -73.998851854010567, 40.702873830121526 ], [ -74.003262689268041, 40.706277053645081 ] ] ] } },
{ "type": "Feature", "properties": { "hex_id": "882a100d21fffff", "mean_score": 84.305853808152293 }, "geometry": { "type": "Polygon", "coordinates": [ [ [ -73.98558983083457, 40.746402560980236 ], [ -73.991968609474668, 40.745348708041142 ], [ -73.993933100038532, 40.740889421517309 ], [ -73.989519721842157, 40.737484319126068 ], [ -73.98314196856704, 40.738537952075369 ], [ -73.981176568235426, 40.742996907375691 ], [ -73.98558983083457, 40.746402560980236 ] ] ] } },
{ "type": "Feature", "properties": { "hex_id": "882a100991fffff", "mean_score": 76.665449126299606 }, "geometry": { "type": "Polygon", "coordinates": [ [ [ -74.03271225379487, 40.800658141076937 ], [ -74.039097580304144, 40.79960109094948 ], [ -74.041059932889652, 40.795137940698467 ], [ -74.036637872075886, 40.791732171230819 ], [ -74.03025357257313, 40.792789000268783 ], [ -74.028290306989931, 40.797251819833718 ], [ -74.03271225379487, 40.800658141076937 ] ] ] } },
{ "type": "Feature", "properties": { "hex_id": "882a100c67fffff", "mean_score": 46.211459062091279 }, "geometry": { "type": "Polygon", "coordinates": [ [ [ -73.904154400845187, 40.74328832579225 ], [ -73.910534170717597, 40.742239023277996 ], [ -73.912506135657964, 40.737781434054718 ], [ -73.908099238539279, 40.734373479938654 ], [ -73.901720495147686, 40.735422564102976 ], [ -73.899747622506396, 40.739879820703486 ], [ -73.904154400845187, 40.74328832579225 ] ] ] } },
{ "type": "Feature", "properties": { "hex_id": "882a1008b5fffff", "mean_score": 57.912209175518967 }, "geometry": { "type": "Polygon", "coordinates": [ [ [ -73.997841521675184, 40.785736662836861 ], [ -74.00422543172796, 40.784681708873912 ], [ -74.006190422393118, 40.780220029526745 ], [ -74.001772414703666, 40.776813635328651 ], [ -73.995389531545541, 40.777868368943402 ], [ -73.993423629294568, 40.782329717074369 ], [ -73.997841521675184, 40.785736662836861 ] ] ] } },
{ "type": "Feature", "properties": { "hex_id": "882a10724dfffff", "mean_score": 66.046791900627142 }, "geometry": { "type": "Polygon", "coordinates": [ [ [ -74.019448383546631, 40.790439140236963 ], [ -74.025832553696148, 40.789382936319676 ], [ -74.027795720142208, 40.784920595068201 ], [ -74.023375628835126, 40.781514788567975 ], [ -74.016992485451084, 40.782570771690835 ], [ -74.01502840672093, 40.787032782078214 ], [ -74.019448383546631, 40.790439140236963 ] ] ] } },
{ "type": "Feature", "properties": { "hex_id": "882a100d05fffff", "mean_score": 88.995313575555315 }, "geometry": { "type": "Polygon", "coordinates": [ [ [ -73.966451968208773, 40.749562064443552 ], [ -73.972831510058683, 40.748509239229854 ], [ -73.974797920658645, 40.744050136596215 ], [ -73.97038569895436, 40.740644190719451 ], [ -73.964007182902535, 40.741696796317413 ], [ -73.962039862869119, 40.746155567377919 ], [ -73.966451968208773, 40.749562064443552 ] ] ] } },
{ "type": "Feature", "properties": { "hex_id": "882a107241fffff", "mean_score": 69.485712478801091 }, "geometry": { "type": "Polygon", "coordinates": [ [ [ -74.016992485451084, 40.782570771690835 ], [ -74.023375628835126, 40.781514788567975 ], [ -74.025338696092135, 40.777052925712745 ], [ -74.020919531997109, 40.773647376816058 ], [ -74.01453741507251, 40.774703139216385 ], [ -74.012573435895732, 40.779164671205812 ], [ -74.016992485451084, 40.782570771690835 ] ] ] } },
{ "type": "Feature", "properties": { "hex_id": "882a10724bfffff", "mean_score": 70.769294170605988 }, "geometry": { "type": "Polygon", "coordinates": [ [ [ -74.006190422393118, 40.780220029526745 ], [ -74.012573435895732, 40.779164671205812 ], [ -74.01453741507251, 40.774703139216385 ], [ -74.010119292429806, 40.771297296559631 ], [ -74.003737305451295, 40.772352434381048 ], [ -74.001772414703666, 40.776813635328651 ], [ -74.006190422393118, 40.780220029526745 ] ] ] } },
{ "type": "Feature", "properties": { "hex_id": "882a1072adfffff", "mean_score": 91.032197143755496 }, "geometry": { "type": "Polygon", "coordinates": [ [ [ -74.046409281834087, 40.715665680736087 ], [ -74.052782820079145, 40.714608787304684 ], [ -74.054740345956759, 40.71015006117424 ], [ -74.050325243725027, 40.706748558448389 ], [ -74.043952728563511, 40.70780523076256 ], [ -74.04199429266184, 40.71226362688968 ], [ -74.046409281834087, 40.715665680736087 ] ] ] } },
{ "type": "Feature", "properties": { "hex_id": "882a100d23fffff", "mean_score": 77.324252689632374 }, "geometry": { "type": "Polygon", "coordinates": [ [ [ -73.98314196856704, 40.738537952075369 ], [ -73.989519721842157, 40.737484319126068 ], [ -73.991484112232001, 40.73302551141412 ], [ -73.987071658863542, 40.729620667846383 ], [ -73.980694930647815, 40.730674080877534 ], [ -73.978729630853209, 40.735132557364594 ], [ -73.98314196856704, 40.738537952075369 ] ] ] } },
{ "type": "Feature", "properties": { "hex_id": "882a107269fffff", "mean_score": 61.243921305407412 }, "geometry": { "type": "Polygon", "coordinates": [ [ [ -74.038600125888891, 40.787269499291433 ], [ -74.044983527645954, 40.786212266277929 ], [ -74.046944770016978, 40.781749742219574 ], [ -74.042523523360487, 40.778344781657985 ], [ -74.036141147932867, 40.779401793502856 ], [ -74.034178992944462, 40.783863987047773 ], [ -74.038600125888891, 40.787269499291433 ] ] ] } },
{ "type": "Feature", "properties": { "hex_id": "882a100d43fffff", "mean_score": 84.772439322940784 }, "geometry": { "type": "Polygon", "coordinates": [ [ [ -73.938961279359475, 40.758228940836048 ], [ -73.945342476949207, 40.757177548472782 ], [ -73.947311818527027, 40.752718483859674 ], [ -73.94290087173961, 40.749311143676692 ], [ -73.936520700749867, 40.750362316950032 ], [ -73.934550450059945, 40.754821049466379 ], [ -73.938961279359475, 40.758228940836048 ] ] ] } },
{ "type": "Feature", "properties": { "hex_id": "882a107289fffff", "mean_score": 83.551391266201236 }, "geometry": { "type": "Polygon", "coordinates": [ [ [ -74.005712276294801, 40.714138089736359 ], [ -74.012086322544249, 40.713083467639606 ], [ -74.014047585777433, 40.708625583358199 ], [ -74.009635711870672, 40.705222651847656 ], [ -74.003262689268041, 40.706277053645081 ], [ -74.001300517037137, 40.710734607222356 ], [ -74.005712276294801, 40.714138089736359 ] ] ] } },
{ "type": "Feature", "properties": { "hex_id": "882a1072ddfffff", "mean_score": 86.577043382584634 }, "geometry": { "type": "Polygon", "coordinates": [ [ [ -73.986588610019851, 40.717299904596537 ], [ -73.992963419890046, 40.716246308263273 ], [ -73.994926600786727, 40.711788606426545 ], [ -73.990515880589982, 40.708384831946553 ], [ -73.984142094799566, 40.709438208353788 ], [ -73.982178005238026, 40.713895579137052 ], [ -73.986588610019851, 40.717299904596537 ] ] ] } },
{ "type": "Feature", "properties": { "hex_id": "882a107285fffff", "mean_score": 71.204815223624649 }, "geometry": { "type": "Polygon", "coordinates": [ [ [ -74.024833650424853, 40.71097319802184 ], [ -74.031206931771081, 40.709917550597879 ], [ -74.033166277349792, 40.705459484649786 ], [ -74.028753251023844, 40.702057396450265 ], [ -74.022380992890959, 40.703112823201764 ], [ -74.020420737982363, 40.707570558795197 ], [ -74.024833650424853, 40.71097319802184 ] ] ] } },
{ "type": "Feature", "properties": { "hex_id": "882a100d5bfffff", "mean_score": 55.307223924687307 }, "geometry": { "type": "Polygon", "coordinates": [ [ [ -73.914941991335951, 40.745647237547921 ], [ -73.921321895375272, 40.744597311544005 ], [ -73.923292952265186, 40.740139389872851 ], [ -73.918885013278626, 40.736731726623624 ], [ -73.912506135657964, 40.737781434054718 ], [ -73.910534170717597, 40.742239023277996 ], [ -73.914941991335951, 40.745647237547921 ] ] ] } },
{ "type": "Feature", "properties": { "hex_id": "882a100d61fffff", "mean_score": 84.197357281421205 }, "geometry": { "type": "Polygon", "coordinates": [ [ [ -73.971344010743763, 40.765294813516086 ], [ -73.97772560510802, 40.764241548856326 ], [ -73.979692217253685, 40.759781489005121 ], [ -73.975278145307357, 40.756375025354245 ], [ -73.968897577353331, 40.757428070255209 ], [ -73.966930055047726, 40.761887798535838 ], [ -73.971344010743763, 40.765294813516086 ] ] ] } },
{ "type": "Feature", "properties": { "hex_id": "882a100c3dfffff", "mean_score": 79.153517704759537 }, "geometry": { "type": "Polygon", "coordinates": [ [ [ -73.896855142933532, 40.719693258063366 ], [ -73.90323183428292, 40.718644610385574 ], [ -73.905203490149674, 40.714188457377418 ], [ -73.900799361394064, 40.710781284642216 ], [ -73.894423695606292, 40.711829714183366 ], [ -73.892451133124837, 40.716285534566566 ], [ -73.896855142933532, 40.719693258063366 ] ] ] } },
{ "type": "Feature", "properties": { "hex_id": "882a100f3bfffff", "mean_score": 75.71181731589148 }, "geometry": { "type": "Polygon", "coordinates": [ [ [ -73.900668774380037, 40.764530091340397 ], [ -73.907051491093597, 40.763480757411109 ], [ -73.909024673449423, 40.759022065332587 ], [ -73.904616047643216, 40.755613039948827 ], [ -73.898234358392926, 40.756662155537718 ], [ -73.896260267598166, 40.761120514820973 ], [ -73.900668774380037, 40.764530091340397 ] ] ] } },
{ "type": "Feature", "properties": { "hex_id": "882a107243fffff", "mean_score": 54.267960699120692 }, "geometry": { "type": "Polygon", "coordinates": [ [ [ -74.01453741507251, 40.774703139216385 ], [ -74.020919531997109, 40.773647376816058 ], [ -74.02288250001321, 40.769185992439795 ], [ -74.018464262772596, 40.765780701301182 ], [ -74.012083172001581, 40.766836243050811 ], [ -74.010119292429806, 40.771297296559631 ], [ -74.01453741507251, 40.774703139216385 ] ] ] } },
{ "type": "Feature", "properties": { "hex_id": "882a1008b7fffff", "mean_score": 58.257253203676925 }, "geometry": { "type": "Polygon", "coordinates": [ [ [ -73.995389531545541, 40.777868368943402 ], [ -74.001772414703666, 40.776813635328651 ], [ -74.003737305451295, 40.772352434381048 ], [ -73.999320224374898, 40.768946298235868 ], [ -73.992938367805266, 40.770000811574157 ], [ -73.990972565835818, 40.774461681304018 ], [ -73.995389531545541, 40.777868368943402 ] ] ] } },
{ "type": "Feature", "properties": { "hex_id": "882a107247fffff", "mean_score": 70.038908407805607 }, "geometry": { "type": "Polygon", "coordinates": [ [ [ -74.025338696092135, 40.777052925712745 ], [ -74.031720942499803, 40.775996538637898 ], [ -74.033682998611525, 40.771534823570185 ], [ -74.029263720332111, 40.768129826238592 ], [ -74.02288250001321, 40.769185992439795 ], [ -74.020919531997109, 40.773647376816058 ], [ -74.025338696092135, 40.777052925712745 ] ] ] } },
{ "type": "Feature", "properties": { "hex_id": "882a100c65fffff", "mean_score": 65.858601760738807 }, "geometry": { "type": "Polygon", "coordinates": [ [ [ -73.906589126810445, 40.751154826280668 ], [ -73.912969923470314, 40.750105305345336 ], [ -73.914941991335951, 40.745647237547921 ], [ -73.910534170717597, 40.742239023277996 ], [ -73.904154400845187, 40.74328832579225 ], [ -73.902181424916151, 40.747746060967707 ], [ -73.906589126810445, 40.751154826280668 ] ] ] } },
{ "type": "Feature", "properties": { "hex_id": "882a100f6bfffff", "mean_score": 65.575016450886238 }, "geometry": { "type": "Polygon", "coordinates": [ [ [ -73.902052318764547, 40.80151976707409 ], [ -73.908440042811037, 40.800469965455854 ], [ -73.910414650618762, 40.79600921535372 ], [ -73.906002444397686, 40.792598599806112 ], [ -73.899615749413542, 40.79364818295123 ], [ -73.897640231701004, 40.798108600087232 ], [ -73.902052318764547, 40.80151976707409 ] ] ] } },
{ "type": "Feature", "properties": { "hex_id": "882a100899fffff", "mean_score": 61.294441650470119 }, "geometry": { "type": "Polygon", "coordinates": [ [ [ -73.948731824506723, 40.789702812905603 ], [ -73.95511713156273, 40.788650543468513 ], [ -73.957086879984203, 40.784189565394996 ], [ -73.952672232028007, 40.780781188820811 ], [ -73.946287952798755, 40.781833238882278 ], [ -73.944317293811537, 40.786293884863589 ], [ -73.948731824506723, 40.789702812905603 ] ] ] } },
{ "type": "Feature", "properties": { "hex_id": "882a100d53fffff", "mean_score": 79.23330522502917 }, "geometry": { "type": "Polygon", "coordinates": [ [ [ -73.923292952265186, 40.740139389872851 ], [ -73.929671963654087, 40.739089059078218 ], [ -73.931642009894162, 40.73463128378868 ], [ -73.927233952894966, 40.73122417153774 ], [ -73.920855967555994, 40.732274283607921 ], [ -73.918885013278626, 40.736731726623624 ], [ -73.923292952265186, 40.740139389872851 ] ] ] } },
{ "type": "Feature", "properties": { "hex_id": "882a1072edfffff", "mean_score": 81.600464413224131 }, "geometry": { "type": "Polygon", "coordinates": [ [ [ -74.032196578362331, 40.734558748093669 ], [ -74.038572931176205, 40.733502438221457 ], [ -74.040532572449351, 40.729042934874535 ], [ -74.036116771439069, 40.725640071719496 ], [ -74.029741442752453, 40.726696160703781 ], [ -74.027780891060701, 40.731155333700926 ], [ -74.032196578362331, 40.734558748093669 ] ] ] } },
{ "type": "Feature", "properties": { "hex_id": "882a100f37fffff", "mean_score": 65.048799057896161 }, "geometry": { "type": "Polygon", "coordinates": [ [ [ -73.919816165890325, 40.761381060022252 ], [ -73.926198123686788, 40.76033069665904 ], [ -73.928169385652041, 40.755871817923676 ], [ -73.923759598709211, 40.752463634967746 ], [ -73.917378667944647, 40.753513779615687 ], [ -73.91540649720352, 40.757972325904966 ], [ -73.919816165890325, 40.761381060022252 ] ] ] } },
{ "type": "Feature", "properties": { "hex_id": "882a100f25fffff", "mean_score": 63.993082787874606 }, "geometry": { "type": "Polygon", "coordinates": [ [ [ -73.937932119685513, 40.787345529502218 ], [ -73.944317293811537, 40.786293884863589 ], [ -73.946287952798755, 40.781833238882278 ], [ -73.941874347988261, 40.778424569777385 ], [ -73.935490201752103, 40.779475995263617 ], [ -73.933518632549166, 40.783936308977211 ], [ -73.937932119685513, 40.787345529502218 ] ] ] } },
{ "type": "Feature", "properties": { "hex_id": "882a1072e7fffff", "mean_score": 67.773441287108142 }, "geometry": { "type": "Polygon", "coordinates": [ [ [ -74.038076314199259, 40.721181047423414 ], [ -74.044450747678596, 40.72012455607657 ], [ -74.046409281834087, 40.715665680736087 ], [ -74.04199429266184, 40.71226362688968 ], [ -74.035620882635499, 40.713319897269812 ], [ -74.033661438440134, 40.71777844243293 ], [ -74.038076314199259, 40.721181047423414 ] ] ] } },
{ "type": "Feature", "properties": { "hex_id": "882a100d37fffff", "mean_score": 66.268507630492863 }, "geometry": { "type": "Polygon", "coordinates": [ [ [ -73.978248716669469, 40.722810947622662 ], [ -73.98462442013124, 40.721757754438094 ], [ -73.986588610019851, 40.717299904596537 ], [ -73.982178005238026, 40.713895579137052 ], [ -73.975803326224877, 40.714948552546552 ], [ -73.973838227656913, 40.719406071160641 ], [ -73.978248716669469, 40.722810947622662 ] ] ] } },
{ "type": "Feature", "properties": { "hex_id": "882a100897fffff", "mean_score": 82.067546637843719 }, "geometry": { "type": "Polygon", "coordinates": [ [ [ -73.965440027978559, 40.778676058911657 ], [ -73.971823544413212, 40.777622979160753 ], [ -73.973791268787963, 40.773162293989728 ], [ -73.96937638737819, 40.769755020283171 ], [ -73.962993898030035, 40.770807880355171 ], [ -73.961025263117563, 40.775268233782647 ], [ -73.965440027978559, 40.778676058911657 ] ] ] } },
{ "type": "Feature", "properties": { "hex_id": "882a107263fffff", "mean_score": 52.446982832732715 }, "geometry": { "type": "Polygon", "coordinates": [ [ [ -74.044484667219237, 40.773882736074974 ], [ -74.050866145245095, 40.772825320684333 ], [ -74.052826278302234, 40.768363423318483 ], [ -74.048405845682709, 40.764959271654 ], [ -74.042025393309757, 40.766016465797016 ], [ -74.040064348015463, 40.770478032821963 ], [ -74.044484667219237, 40.773882736074974 ] ] ] } },
{ "type": "Feature", "properties": { "hex_id": "882a100d3bfffff", "mean_score": 77.08801824627956 }, "geometry": { "type": "Polygon", "coordinates": [ [ [ -73.959120082176057, 40.725968474065844 ], [ -73.965496547549122, 40.724916307484882 ], [ -73.967462655449495, 40.720458641294748 ], [ -73.963053206434139, 40.717053473232347 ], [ -73.956677765941947, 40.718105420411987 ], [ -73.954710749696289, 40.722562755025407 ], [ -73.959120082176057, 40.725968474065844 ] ] ] } },
{ "type": "Feature", "properties": { "hex_id": "882a1008bdfffff", "mean_score": 69.727475218988246 }, "geometry": { "type": "Polygon", "coordinates": [ [ [ -73.989490712619059, 40.791253038612602 ], [ -73.995875519193973, 40.790198489286247 ], [ -73.997841521675184, 40.785736662836861 ], [ -73.993423629294568, 40.782329717074369 ], [ -73.987039849984924, 40.783384046203906 ], [ -73.985072935903077, 40.787845541262712 ], [ -73.989490712619059, 40.791253038612602 ] ] ] } },
{ "type": "Feature", "properties": { "hex_id": "882a1072c3fffff", "mean_score": 71.812022263010789 }, "geometry": { "type": "Polygon", "coordinates": [ [ [ -73.997375064144535, 40.719650341803977 ], [ -74.003750004410762, 40.718596122451238 ], [ -74.005712276294801, 40.714138089736359 ], [ -74.001300517037137, 40.710734607222356 ], [ -73.994926600786727, 40.711788606426545 ], [ -73.992963419890046, 40.716246308263273 ], [ -73.997375064144535, 40.719650341803977 ] ] ] } },
{ "type": "Feature", "properties": { "hex_id": "882a100d6bfffff", "mean_score": 88.624331635205991 }, "geometry": { "type": "Polygon", "coordinates": [ [ [ -73.960548592479626, 40.762940439000474 ], [ -73.966930055047726, 40.761887798535838 ], [ -73.968897577353331, 40.757428070255209 ], [ -73.964484547013924, 40.75402131415531 ], [ -73.958104110919564, 40.755073735084089 ], [ -73.956135678803221, 40.759533131618653 ], [ -73.960548592479626, 40.762940439000474 ] ] ] } },
{ "type": "Feature", "properties": { "hex_id": "882a107211fffff", "mean_score": 67.919944838525481 }, "geometry": { "type": "Polygon", "coordinates": [ [ [ -74.015518875510452, 40.745589611486523 ], [ -74.02189701939659, 40.74453410747514 ], [ -74.023858679482601, 40.740074307141967 ], [ -74.01944310624387, 40.736670341488164 ], [ -74.013065987224564, 40.737725624913246 ], [ -74.01110341668911, 40.742185094548347 ], [ -74.015518875510452, 40.745589611486523 ] ] ] } },
{ "type": "Feature", "properties": { "hex_id": "882a10088bfffff", "mean_score": 76.512297379113889 }, "geometry": { "type": "Polygon", "coordinates": [ [ [ -73.961979356382614, 40.799929528832742 ], [ -73.968365823976171, 40.798876414830261 ], [ -73.970334762702407, 40.794414626682894 ], [ -73.965918145227434, 40.791006284423297 ], [ -73.959532705704206, 40.79205917875538 ], [ -73.957562855698228, 40.796520634987452 ], [ -73.961979356382614, 40.799929528832742 ] ] ] } },
{ "type": "Feature", "properties": { "hex_id": "882a100d6dfffff", "mean_score": 70.05191838755114 }, "geometry": { "type": "Polygon", "coordinates": [ [ [ -73.973791268787963, 40.773162293989728 ], [ -73.980173889868666, 40.772108809499585 ], [ -73.982140602710786, 40.76764827116326 ], [ -73.97772560510802, 40.764241548856326 ], [ -73.971344010743763, 40.765294813516086 ], [ -73.96937638737819, 40.769755020283171 ], [ -73.973791268787963, 40.773162293989728 ] ] ] } },
{ "type": "Feature", "properties": { "hex_id": "882a100d15fffff", "mean_score": 60.054815932897753 }, "geometry": { "type": "Polygon", "coordinates": [ [ [ -73.950775606107428, 40.731478050327141 ], [ -73.957152964617308, 40.730426287577103 ], [ -73.959120082176057, 40.725968474065844 ], [ -73.954710749696289, 40.722562755025407 ], [ -73.948334416436083, 40.723614298525398 ], [ -73.946366390518122, 40.728071780285958 ], [ -73.950775606107428, 40.731478050327141 ] ] ] } },
{ "type": "Feature", "properties": { "hex_id": "882a100f07fffff", "mean_score": 64.124944562285805 }, "geometry": { "type": "Polygon", "coordinates": [ [ [ -73.905540069228138, 40.780268177659018 ], [ -73.911924841789656, 40.779218406835376 ], [ -73.913898230373505, 40.774758758183324 ], [ -73.909487755673567, 40.771349213118654 ], [ -73.90310401118964, 40.772398765459535 ], [ -73.901129713440767, 40.776858081317982 ], [ -73.905540069228138, 40.780268177659018 ] ] ] } },
{ "type": "Feature", "properties": { "hex_id": "882a100f39fffff", "mean_score": 66.735166652322448 }, "geometry": { "type": "Polygon", "coordinates": [ [ [ -73.90310401118964, 40.772398765459535 ], [ -73.909487755673567, 40.771349213118654 ], [ -73.911461041168266, 40.766890042712141 ], [ -73.907051491093597, 40.763480757411109 ], [ -73.900668774380037, 40.764530091340397 ], [ -73.898694580083443, 40.76898892895246 ], [ -73.90310401118964, 40.772398765459535 ] ] ] } },
{ "type": "Feature", "properties": { "hex_id": "882a100d65fffff", "mean_score": 61.277438479967827 }, "geometry": { "type": "Polygon", "coordinates": [ [ [ -73.982140602710786, 40.76764827116326 ], [ -73.988522328408948, 40.766594382212254 ], [ -73.990488030045611, 40.762133990966078 ], [ -73.986072916605409, 40.758727820035872 ], [ -73.979692217253685, 40.759781489005121 ], [ -73.97772560510802, 40.764241548856326 ], [ -73.982140602710786, 40.76764827116326 ] ] ] } },
{ "type": "Feature", "properties": { "hex_id": "882a10705bfffff", "mean_score": 93.390429448386698 }, "geometry": { "type": "Polygon", "coordinates": [ [ [ -74.048866662043523, 40.723526868017366 ], [ -74.055241223676447, 40.722469753396808 ], [ -74.057198847444909, 40.718010548054764 ], [ -74.052782820079145, 40.714608787304684 ], [ -74.046409281834087, 40.715665680736087 ], [ -74.044450747678596, 40.72012455607657 ], [ -74.048866662043523, 40.723526868017366 ] ] ] } },
{ "type": "Feature", "properties": { "hex_id": "882a100f05fffff", "mean_score": 74.420664826094153 }, "geometry": { "type": "Polygon", "coordinates": [ [ [ -73.907976948902203, 40.788138327702562 ], [ -73.914362749848664, 40.787088338324935 ], [ -73.916336241471825, 40.782628211509923 ], [ -73.911924841789656, 40.779218406835376 ], [ -73.905540069228138, 40.780268177659018 ], [ -73.90356566807661, 40.784727971681306 ], [ -73.907976948902203, 40.788138327702562 ] ] ] } },
{ "type": "Feature", "properties": { "hex_id": "882a100c23fffff", "mean_score": 50.51069862441787 }, "geometry": { "type": "Polygon", "coordinates": [ [ [ -73.907636885470424, 40.722052043734159 ], [ -73.914013711172899, 40.721002773235163 ], [ -73.915984460075848, 40.71654628777668 ], [ -73.911579290352392, 40.713139405237726 ], [ -73.905203490149674, 40.714188457377418 ], [ -73.90323183428292, 40.718644610385574 ], [ -73.907636885470424, 40.722052043734159 ] ] ] } },
{ "type": "Feature", "properties": { "hex_id": "882a100d51fffff", "mean_score": 79.848251733512043 }, "geometry": { "type": "Polygon", "coordinates": [ [ [ -73.925730758161762, 40.74800523472333 ], [ -73.932110795906937, 40.746954685133026 ], [ -73.934080944396968, 40.742496431188961 ], [ -73.929671963654087, 40.739089059078218 ], [ -73.923292952265186, 40.740139389872851 ], [ -73.921321895375272, 40.744597311544005 ], [ -73.925730758161762, 40.74800523472333 ] ] ] } },
{ "type": "Feature", "properties": { "hex_id": "882a1008a5fffff", "mean_score": 89.030054528390437 }, "geometry": { "type": "Polygon", "coordinates": [ [ [ -74.013554737175141, 40.803827231802664 ], [ -74.01994083208713, 40.802771211552269 ], [ -74.021905109768795, 40.798308244617338 ], [ -74.01748420531483, 40.794901628939535 ], [ -74.011099137845605, 40.795957428474928 ], [ -74.00913394749999, 40.800420064372993 ], [ -74.013554737175141, 40.803827231802664 ] ] ] } },
{ "type": "Feature", "properties": { "hex_id": "882a100d1bfffff", "mean_score": 98.239718713934622 }, "geometry": { "type": "Polygon", "coordinates": [ [ [ -73.929203896835048, 40.726766874984904 ], [ -73.935580989862586, 40.725716358553349 ], [ -73.937549923791039, 40.721259208718585 ], [ -73.933142672465877, 40.717852907386209 ], [ -73.926766604813565, 40.718903205013071 ], [ -73.924796763223398, 40.723360022747116 ], [ -73.929203896835048, 40.726766874984904 ] ] ] } },
{ "type": "Feature", "properties": { "hex_id": "882a1008dbfffff", "mean_score": 69.02539782894236 }, "geometry": { "type": "Polygon", "coordinates": [ [ [ -73.932015989910582, 40.80072852887119 ], [ -73.938403087471102, 40.799677070861911 ], [ -73.940374861248131, 40.795215800909162 ], [ -73.935960448170377, 40.79180632137674 ], [ -73.929574379177012, 40.792857560314104 ], [ -73.927601694806967, 40.797318497825877 ], [ -73.932015989910582, 40.80072852887119 ] ] ] } },
{ "type": "Feature", "properties": { "hex_id": "882a107281fffff", "mean_score": 90.46038640947539 }, "geometry": { "type": "Polygon", "coordinates": [ [ [ -74.014047585777433, 40.708625583358199 ], [ -74.020420737982363, 40.707570558795197 ], [ -74.022380992890959, 40.703112823201764 ], [ -74.017969004688993, 40.69971044267146 ], [ -74.01159687576191, 40.700765246784407 ], [ -74.009635711870672, 40.705222651847656 ], [ -74.014047585777433, 40.708625583358199 ] ] ] } },
{ "type": "Feature", "properties": { "hex_id": "882a1008d5fffff", "mean_score": 68.805240033207383 }, "geometry": { "type": "Polygon", "coordinates": [ [ [ -73.953622041212199, 40.805444171543442 ], [ -73.960009404842836, 40.80439146314059 ], [ -73.961979356382614, 40.799929528832742 ], [ -73.957562855698228, 40.796520634987452 ], [ -73.951176520508454, 40.797573123871665 ], [ -73.949205657674909, 40.802034726089801 ], [ -73.953622041212199, 40.805444171543442 ] ] ] } },
{ "type": "Feature", "properties": { "hex_id": "882a100d1dfffff", "mean_score": 40.278691681832434 }, "geometry": { "type": "Polygon", "coordinates": [ [ [ -73.942429226946672, 40.736987369545844 ], [ -73.948807478564277, 40.735936010904531 ], [ -73.950775606107428, 40.731478050327141 ], [ -73.946366390518122, 40.728071780285958 ], [ -73.939989164519005, 40.729122919828548 ], [ -73.938020128602901, 40.733580548481193 ], [ -73.942429226946672, 40.736987369545844 ] ] ] } },
{ "type": "Feature", "properties": { "hex_id": "882a100d03fffff", "mean_score": 66.299836917633911 }, "geometry": { "type": "Polygon", "coordinates": [ [ [ -73.953217618140584, 40.73934254051138 ], [ -73.95959600220597, 40.738290558439857 ], [ -73.961563221027319, 40.73383226611287 ], [ -73.957152964617308, 40.730426287577103 ], [ -73.950775606107428, 40.731478050327141 ], [ -73.948807478564277, 40.735936010904531 ], [ -73.953217618140584, 40.73934254051138 ] ] ] } },
{ "type": "Feature", "properties": { "hex_id": "882a1072e5fffff", "mean_score": 50.413724631979292 }, "geometry": { "type": "Polygon", "coordinates": [ [ [ -74.040532572449351, 40.729042934874535 ], [ -74.046908029686236, 40.727986222489115 ], [ -74.048866662043523, 40.723526868017366 ], [ -74.044450747678596, 40.72012455607657 ], [ -74.038076314199259, 40.721181047423414 ], [ -74.036116771439069, 40.725640071719496 ], [ -74.040532572449351, 40.729042934874535 ] ] ] } },
{ "type": "Feature", "properties": { "hex_id": "882a1008a1fffff", "mean_score": 64.483807430347738 }, "geometry": { "type": "Polygon", "coordinates": [ [ [ -74.002747982738825, 40.801475459247705 ], [ -74.00913394749999, 40.800420064372993 ], [ -74.011099137845605, 40.795957428474928 ], [ -74.006679275856953, 40.792550518634471 ], [ -74.000294338603197, 40.793605693017412 ], [ -73.99832823594312, 40.798067997702447 ], [ -74.002747982738825, 40.801475459247705 ] ] ] } },
{ "type": "Feature", "properties": { "hex_id": "882a100d07fffff", "mean_score": 83.566228263227885 }, "geometry": { "type": "Polygon", "coordinates": [ [ [ -73.964007182902535, 40.741696796317413 ], [ -73.97038569895436, 40.740644190719451 ], [ -73.972352008705172, 40.736185566818122 ], [ -73.967940711586905, 40.732779880059141 ], [ -73.961563221027319, 40.73383226611287 ], [ -73.95959600220597, 40.738290558439857 ], [ -73.964007182902535, 40.741696796317413 ] ] ] } },
{ "type": "Feature", "properties": { "hex_id": "882a1008bbfffff", "mean_score": 60.83855795968136 }, "geometry": { "type": "Polygon", "coordinates": [ [ [ -73.976239351893994, 40.781030511439496 ], [ -73.982622999997517, 40.779976807047333 ], [ -73.984589813485073, 40.775515790308461 ], [ -73.980173889868666, 40.772108809499585 ], [ -73.973791268787963, 40.773162293989728 ], [ -73.971823544413212, 40.777622979160753 ], [ -73.976239351893994, 40.781030511439496 ] ] ] } },
{ "type": "Feature", "properties": { "hex_id": "882a100d4dfffff", "mean_score": 79.147295867437307 }, "geometry": { "type": "Polygon", "coordinates": [ [ [ -73.943844904976629, 40.773964402038523 ], [ -73.950228156686009, 40.772912571281225 ], [ -73.952197701786645, 40.768452549772846 ], [ -73.947784905128927, 40.765044691086388 ], [ -73.941402680632692, 40.766096302610975 ], [ -73.939432225693537, 40.770555992024789 ], [ -73.943844904976629, 40.773964402038523 ] ] ] } },
{ "type": "Feature", "properties": { "hex_id": "882a100d4bfffff", "mean_score": 66.471672569666381 }, "geometry": { "type": "Polygon", "coordinates": [ [ [ -73.930608835142579, 40.763739139237934 ], [ -73.936990926519826, 40.762688151842347 ], [ -73.938961279359475, 40.758228940836048 ], [ -73.934550450059945, 40.754821049466379 ], [ -73.928169385652041, 40.755871817923676 ], [ -73.926198123686788, 40.76033069665904 ], [ -73.930608835142579, 40.763739139237934 ] ] ] } },
{ "type": "Feature", "properties": { "hex_id": "882a10099bfffff", "mean_score": 56.010339382829542 }, "geometry": { "type": "Polygon", "coordinates": [ [ [ -74.021905109768795, 40.798308244617338 ], [ -74.028290306989931, 40.797251819833718 ], [ -74.03025357257313, 40.792789000268783 ], [ -74.025832553696148, 40.789382936319676 ], [ -74.019448383546631, 40.790439140236963 ], [ -74.01748420531483, 40.794901628939535 ], [ -74.021905109768795, 40.798308244617338 ] ] ] } },
{ "type": "Feature", "properties": { "hex_id": "882a10726bfffff", "mean_score": 48.269407806814456 }, "geometry": { "type": "Polygon", "coordinates": [ [ [ -74.036141147932867, 40.779401793502856 ], [ -74.042523523360487, 40.778344781657985 ], [ -74.044484667219237, 40.773882736074974 ], [ -74.040064348015463, 40.770478032821963 ], [ -74.033682998611525, 40.771534823570185 ], [ -74.031720942499803, 40.775996538637898 ], [ -74.036141147932867, 40.779401793502856 ] ] ] } },
{ "type": "Feature", "properties": { "hex_id": "882a10726dfffff", "mean_score": 63.112560070430433 }, "geometry": { "type": "Polygon", "coordinates": [ [ [ -74.049405702113006, 40.789617483993361 ], [ -74.055789232361263, 40.788559625891395 ], [ -74.057749561766286, 40.784096771495918 ], [ -74.053327274001219, 40.780692105509303 ], [ -74.046944770016978, 40.781749742219574 ], [ -74.044983527645954, 40.786212266277929 ], [ -74.049405702113006, 40.789617483993361 ] ] ] } },
{ "type": "Feature", "properties": { "hex_id": "882a1008a3fffff", "mean_score": 88.610085045238151 }, "geometry": { "type": "Polygon", "coordinates": [ [ [ -74.000294338603197, 40.793605693017412 ], [ -74.006679275856953, 40.792550518634471 ], [ -74.008644366388111, 40.788088360970463 ], [ -74.00422543172796, 40.784681708873912 ], [ -73.997841521675184, 40.785736662836861 ], [ -73.995875519193973, 40.790198489286247 ], [ -74.000294338603197, 40.793605693017412 ] ] ] } },
{ "type": "Feature", "properties": { "hex_id": "882a100995fffff", "mean_score": 97.412573029879667 }, "geometry": { "type": "Polygon", "coordinates": [ [ [ -74.04352056934539, 40.803007117486217 ], [ -74.04990602467889, 40.801949441919376 ], [ -74.051867463917674, 40.797485961158692 ], [ -74.047444361281947, 40.794080486444315 ], [ -74.041059932889652, 40.795137940698467 ], [ -74.039097580304144, 40.79960109094948 ], [ -74.04352056934539, 40.803007117486217 ] ] ] } },
{ "type": "Feature", "properties": { "hex_id": "882a100f61fffff", "mean_score": 51.493218814755721 }, "geometry": { "type": "Polygon", "coordinates": [ [ [ -73.912853174785013, 40.803880840375825 ], [ -73.919241033423873, 40.802830413676453 ], [ -73.921214730975933, 40.798369330783501 ], [ -73.916801480257618, 40.794959007350855 ], [ -73.910414650618762, 40.79600921535372 ], [ -73.908440042811037, 40.800469965455854 ], [ -73.912853174785013, 40.803880840375825 ] ] ] } },
{ "type": "Feature", "properties": { "hex_id": "882a1072c1fffff", "mean_score": 54.593902911011405 }, "geometry": { "type": "Polygon", "coordinates": [ [ [ -73.999824351951759, 40.727512815145431 ], [ -74.006200316538838, 40.726458375572506 ], [ -74.008162688024711, 40.721999863802061 ], [ -74.003750004410762, 40.718596122451238 ], [ -73.997375064144535, 40.719650341803977 ], [ -73.995411783283316, 40.724108522697691 ], [ -73.999824351951759, 40.727512815145431 ] ] ] } },
{ "type": "Feature", "properties": { "hex_id": "882a100997fffff", "mean_score": 74.250675456678451 }, "geometry": { "type": "Polygon", "coordinates": [ [ [ -74.041059932889652, 40.795137940698467 ], [ -74.047444361281947, 40.794080486444315 ], [ -74.049405702113006, 40.789617483993361 ], [ -74.044983527645954, 40.786212266277929 ], [ -74.038600125888891, 40.787269499291433 ], [ -74.036637872075886, 40.791732171230819 ], [ -74.041059932889652, 40.795137940698467 ] ] ] } },
{ "type": "Feature", "properties": { "hex_id": "882a100d69fffff", "mean_score": 78.668702156056824 }, "geometry": { "type": "Polygon", "coordinates": [ [ [ -73.962993898030035, 40.770807880355171 ], [ -73.96937638737819, 40.769755020283171 ], [ -73.971344010743763, 40.765294813516086 ], [ -73.966930055047726, 40.761887798535838 ], [ -73.960548592479626, 40.762940439000474 ], [ -73.958580058939916, 40.767400314022737 ], [ -73.962993898030035, 40.770807880355171 ] ] ] } },
{ "type": "Feature", "properties": { "hex_id": "882a100d13fffff", "mean_score": 77.200155606354784 }, "geometry": { "type": "Polygon", "coordinates": [ [ [ -73.937549923791039, 40.721259208718585 ], [ -73.943926124477599, 40.720208288203345 ], [ -73.945894048720078, 40.715751285341696 ], [ -73.941486680036405, 40.712345534892158 ], [ -73.935111504356612, 40.713396236451324 ], [ -73.933142672465877, 40.717852907386209 ], [ -73.937549923791039, 40.721259208718585 ] ] ] } },
{ "type": "Feature", "properties": { "hex_id": "882a100debfffff", "mean_score": 69.078636451465286 }, "geometry": { "type": "Polygon", "coordinates": [ [ [ -73.943454502553195, 40.707889011011396 ], [ -73.94982878623108, 40.706837905797478 ], [ -73.951795599699395, 40.702381529225704 ], [ -73.947389036874483, 40.698976589591808 ], [ -73.9410157775295, 40.700027475769701 ], [ -73.939048056788536, 40.704483520587665 ], [ -73.943454502553195, 40.707889011011396 ] ] ] } },
{ "type": "Feature", "properties": { "hex_id": "882a107233fffff", "mean_score": 71.476525137563414 }, "geometry": { "type": "Polygon", "coordinates": [ [ [ -74.042989657794294, 40.73690555938699 ], [ -74.049366139093394, 40.735848625891037 ], [ -74.051324869600379, 40.731388792370211 ], [ -74.046908029686236, 40.727986222489115 ], [ -74.040532572449351, 40.729042934874535 ], [ -74.038572931176205, 40.733502438221457 ], [ -74.042989657794294, 40.73690555938699 ] ] ] } },
{ "type": "Feature", "properties": { "hex_id": "882a107249fffff", "mean_score": 80.356271701571998 }, "geometry": { "type": "Polygon", "coordinates": [ [ [ -74.008644366388111, 40.788088360970463 ], [ -74.01502840672093, 40.787032782078214 ], [ -74.016992485451084, 40.782570771690835 ], [ -74.012573435895732, 40.779164671205812 ], [ -74.006190422393118, 40.780220029526745 ], [ -74.00422543172796, 40.784681708873912 ], [ -74.008644366388111, 40.788088360970463 ] ] ] } },
{ "type": "Feature", "properties": { "hex_id": "882a100de3fffff", "mean_score": 45.418149166196301 }, "geometry": { "type": "Polygon", "coordinates": [ [ [ -73.951795599699395, 40.702381529225704 ], [ -73.958168991346213, 40.701330020634501 ], [ -73.960134796091452, 40.696873791626459 ], [ -73.955728116560749, 40.693469402759661 ], [ -73.949355748878659, 40.694520692163692 ], [ -73.947389036874483, 40.698976589591808 ], [ -73.951795599699395, 40.702381529225704 ] ] ] } },
{ "type": "Feature", "properties": { "hex_id": "882a107203fffff", "mean_score": 71.35298206628174 }, "geometry": { "type": "Polygon", "coordinates": [ [ [ -74.028769184234349, 40.755803092221647 ], [ -74.035148482507481, 40.754746743450887 ], [ -74.037109330516586, 40.750286133789821 ], [ -74.032691791525593, 40.74688220338993 ], [ -74.0263135183598, 40.747938331279805 ], [ -74.024351759189656, 40.752398610420322 ], [ -74.028769184234349, 40.755803092221647 ] ] ] } },
{ "type": "Feature", "properties": { "hex_id": "882a100c35fffff", "mean_score": 82.955643603037856 }, "geometry": { "type": "Polygon", "coordinates": [ [ [ -73.905203490149674, 40.714188457377418 ], [ -73.911579290352392, 40.713139405237726 ], [ -73.913549936493581, 40.708683398680868 ], [ -73.909145689146271, 40.705276776684947 ], [ -73.902770914137236, 40.706325610536425 ], [ -73.900799361394064, 40.710781284642216 ], [ -73.905203490149674, 40.714188457377418 ] ] ] } },
{ "type": "Feature", "properties": { "hex_id": "882a1072d7fffff", "mean_score": 87.22023700067173 }, "geometry": { "type": "Polygon", "coordinates": [ [ [ -73.992478961471079, 40.703927609248808 ], [ -73.998851854010567, 40.702873830121526 ], [ -74.00081392653712, 40.698416755763823 ], [ -73.996404014923883, 40.69501379138427 ], [ -73.990032145790551, 40.696067350506233 ], [ -73.988069164976082, 40.700524093983084 ], [ -73.992478961471079, 40.703927609248808 ] ] ] } },
{ "type": "Feature", "properties": { "hex_id": "882a100f0dfffff", "mean_score": 52.668392256298155 }, "geometry": { "type": "Polygon", "coordinates": [ [ [ -73.899615749413542, 40.79364818295123 ], [ -73.906002444397686, 40.792598599806112 ], [ -73.907976948902203, 40.788138327702562 ], [ -73.90356566807661, 40.784727971681306 ], [ -73.897180001847104, 40.78577733642453 ], [ -73.895204587801373, 40.790237275561068 ], [ -73.899615749413542, 40.79364818295123 ] ] ] } },
{ "type": "Feature", "properties": { "hex_id": "882a100d49fffff", "mean_score": 60.290026104973933 }, "geometry": { "type": "Polygon", "coordinates": [ [ [ -73.933049107040233, 40.771607198430011 ], [ -73.939432225693537, 40.770555992024789 ], [ -73.941402680632692, 40.766096302610975 ], [ -73.936990926519826, 40.762688151842347 ], [ -73.930608835142579, 40.763739139237934 ], [ -73.928637470714662, 40.768198496381864 ], [ -73.933049107040233, 40.771607198430011 ] ] ] } },
{ "type": "Feature", "properties": { "hex_id": "882a100881fffff", "mean_score": 56.068788939732443 }, "geometry": { "type": "Polygon", "coordinates": [ [ [ -73.972783368294614, 40.802285015423649 ], [ -73.979169967828781, 40.801231276206494 ], [ -73.981137994925291, 40.796769156319677 ], [ -73.976720334229967, 40.793361107359445 ], [ -73.970334762702407, 40.794414626682894 ], [ -73.968365823976171, 40.798876414830261 ], [ -73.972783368294614, 40.802285015423649 ] ] ] } },
{ "type": "Feature", "properties": { "hex_id": "882a100d3dfffff", "mean_score": 87.856470016337894 }, "geometry": { "type": "Polygon", "coordinates": [ [ [ -73.972352008705172, 40.736185566818122 ], [ -73.978729630853209, 40.735132557364594 ], [ -73.980694930647815, 40.730674080877534 ], [ -73.97628351746279, 40.727268945214291 ], [ -73.969906920437822, 40.728321734972347 ], [ -73.967940711586905, 40.732779880059141 ], [ -73.972352008705172, 40.736185566818122 ] ] ] } },
{ "type": "Feature", "properties": { "hex_id": "882a100d09fffff", "mean_score": 71.646756159432982 }, "geometry": { "type": "Polygon", "coordinates": [ [ [ -73.947311818527027, 40.752718483859674 ], [ -73.953692122299884, 40.751666686806807 ], [ -73.955660452942297, 40.747207768842351 ], [ -73.951249389022607, 40.743800979823412 ], [ -73.944870111480441, 40.744852557634822 ], [ -73.94290087173961, 40.749311143676692 ], [ -73.947311818527027, 40.752718483859674 ] ] ] } },
{ "type": "Feature", "properties": { "hex_id": "882a107253fffff", "mean_score": 59.123581364700001 }, "geometry": { "type": "Polygon", "coordinates": [ [ [ -73.998833551091181, 40.75661945393189 ], [ -74.005213485939279, 40.755564756894145 ], [ -74.007177166146406, 40.751104660594244 ], [ -74.002761822097142, 40.747699592348496 ], [ -73.99638291285558, 40.748754069102013 ], [ -73.994418322168883, 40.753213834355449 ], [ -73.998833551091181, 40.75661945393189 ] ] ] } },
{ "type": "Feature", "properties": { "hex_id": "882a100c31fffff", "mean_score": 91.312967712655166 }, "geometry": { "type": "Polygon", "coordinates": [ [ [ -73.894423695606292, 40.711829714183366 ], [ -73.900799361394064, 40.710781284642216 ], [ -73.902770914137236, 40.706325610536425 ], [ -73.89836770745795, 40.702918698567593 ], [ -73.891993066925679, 40.703966910043121 ], [ -73.890020607929472, 40.708422251523324 ], [ -73.894423695606292, 40.711829714183366 ] ] ] } },
{ "type": "Feature", "properties": { "hex_id": "882a100d55fffff", "mean_score": 96.87565645706006 }, "geometry": { "type": "Polygon", "coordinates": [ [ [ -73.936520700749867, 40.750362316950032 ], [ -73.94290087173961, 40.749311143676692 ], [ -73.944870111480441, 40.744852557634822 ], [ -73.940460089093094, 40.741445476934189 ], [ -73.934080944396968, 40.742496431188961 ], [ -73.932110795906937, 40.746954685133026 ], [ -73.936520700749867, 40.750362316950032 ] ] ] } },
{ "type": "Feature", "properties": { "hex_id": "882a100dc7fffff", "mean_score": 93.145281848796813 }, "geometry": { "type": "Polygon", "coordinates": [ [ [ -73.932673905809835, 40.705534003262024 ], [ -73.939048056788536, 40.704483520587665 ], [ -73.9410157775295, 40.700027475769701 ], [ -73.936610254328201, 40.696622245524892 ], [ -73.930237127745073, 40.697672509385718 ], [ -73.92826850007971, 40.702128222275043 ], [ -73.932673905809835, 40.705534003262024 ] ] ] } },
{ "type": "Feature", "properties": { "hex_id": "882a100d0dfffff", "mean_score": 47.356010872869504 }, "geometry": { "type": "Polygon", "coordinates": [ [ [ -73.958104110919564, 40.755073735084089 ], [ -73.964484547013924, 40.75402131415531 ], [ -73.966451968208773, 40.749562064443552 ], [ -73.962039862869119, 40.746155567377919 ], [ -73.955660452942297, 40.747207768842351 ], [ -73.953692122299884, 40.751666686806807 ], [ -73.958104110919564, 40.755073735084089 ] ] ] } },
{ "type": "Feature", "properties": { "hex_id": "882a100c29fffff", "mean_score": 56.709801673359877 }, "geometry": { "type": "Polygon", "coordinates": [ [ [ -73.901720495147686, 40.735422564102976 ], [ -73.908099238539279, 40.734373479938654 ], [ -73.910071100504695, 40.729916369371665 ], [ -73.90566512652957, 40.726508675562748 ], [ -73.899287409312279, 40.727557541448256 ], [ -73.89731464000819, 40.732014319391709 ], [ -73.901720495147686, 40.735422564102976 ] ] ] } }
]
}
