{
  "type": "FeatureCollection",
  "features": [
    {
      "type": "Feature",
      "properties": {
        "name": "Competitor 1",
        "type": "Coffee Shop",
        "chain": true,
        "estimated_revenue": 1040344
      },
      "geometry": {
        "type": "Point",
        "coordinates": [
          -73.985898,
          40.77735
        ]
      }
    },
    {
      "type": "Feature",
      "properties": {
        "name": "Competitor 2",
        "type": "Bookstore",
        "chain": true,
        "estimated_revenue": 518194
      },
      "geometry": {
        "type": "Point",
        "coordinates": [
          -74.002585,
          40.758672
        ]
      }
    },
    {
      "type": "Feature",
      "properties": {
        "name": "Competitor 3",
        "type": "Convenience Store",
        "chain": true,
        "estimated_revenue": 720494
      },
      "geometry": {
        "type": "Point",
        "coordinates": [
          -73.975624,
          40.768188
        ]
      }
    },
    {
      "type": "Feature",
      "properties": {
        "name": "Competitor 4",
        "type": "Electronics",
        "chain": true,
        "estimated_revenue": 1826747
      },
      "geometry": {
        "type": "Point",
        "coordinates": [
          -73.968828,
          40.76963
        ]
      }
    },
    {
      "type": "Feature",
      "properties": {
        "name": "Competitor 5",
        "type": "Clothing Store",
        "chain": false,
        "estimated_revenue": 1434226
      },
      "geometry": {
        "type": "Point",
        "coordinates": [
          -73.998723,
          40.75657
        ]
      }
    },
    {
      "type": "Feature",
      "properties": {
        "name": "Competitor 6",
        "type": "Electronics",
        "chain": true,
        "estimated_revenue": 1478488
      },
      "geometry": {
        "type": "Point",
        "coordinates": [
          -73.976464,
          40.757571
        ]
      }
    },
    {
      "type": "Feature",
      "properties": {
        "name": "Competitor 7",
        "type": "Fast Food",
        "chain": true,
        "estimated_revenue": 755003
      },
      "geometry": {
        "type": "Point",
        "coordinates": [
          -73.98265,
          40.757447
        ]
      }
    },
    {
      "type": "Feature",
      "properties": {
        "name": "Competitor 8",
        "type": "Fast Food",
        "chain": true,
        "estimated_revenue": 528272
      },
      "geometry": {
        "type": "Point",
        "coordinates": [
          -73.987984,
          40.755017
        ]
      }
    },
    {
      "type": "Feature",
      "properties": {
        "name": "Competitor 9",
        "type": "Electronics",
        "chain": false,
        "estimated_revenue": 810815
      },
      "geometry": {
        "type": "Point",
        "coordinates": [
          -73.972145,
          40.75817
        ]
      }
    },
    {
      "type": "Feature",
      "properties": {
        "name": "Competitor 10",
        "type": "Convenience Store",
        "chain": false,
        "estimated_revenue": 349274
      },
      "geometry": {
        "type": "Point",
        "coordinates": [
          -73.977137,
          40.759318
        ]
      }
    },
    {
      "type": "Feature",
      "properties": {
        "name": "Competitor 11",
        "type": "Bookstore",
        "chain": true,
        "estimated_revenue": 1091581
      },
      "geometry": {
        "type": "Point",
        "coordinates": [
          -73.996001,
          40.738836
        ]
      }
    },
    {
      "type": "Feature",
      "properties": {
        "name": "Competitor 12",
        "type": "Fast Food",
        "chain": false,
        "estimated_revenue": 1933571
      },
      "geometry": {
        "type": "Point",
        "coordinates": [
          -73.980494,
          40.761333
        ]
      }
    },
    {
      "type": "Feature",
      "properties": {
        "name": "Competitor 13",
        "type": "Convenience Store",
        "chain": false,
        "estimated_revenue": 1120971
      },
      "geometry": {
        "type": "Point",
        "coordinates": [
          -73.984392,
          40.759044
        ]
      }
    },
    {
      "type": "Feature",
      "properties": {
        "name": "Competitor 14",
        "type": "Bookstore",
        "chain": false,
        "estimated_revenue": 770941
      },
      "geometry": {
        "type": "Point",
        "coordinates": [
          -73.971004,
          40.768892
        ]
      }
    },
    {
      "type": "Feature",
      "properties": {
        "name": "Competitor 15",
        "type": "Coffee Shop",
        "chain": true,
        "estimated_revenue": 1106029
      },
      "geometry": {
        "type": "Point",
        "coordinates": [
          -74.00014,
          40.757967
        ]
      }
    },
    {
      "type": "Feature",
      "properties": {
        "name": "Competitor 16",
        "type": "Coffee Shop",
        "chain": true,
        "estimated_revenue": 680089
      },
      "geometry": {
        "type": "Point",
        "coordinates": [
          -73.987237,
          40.744506
        ]
      }
    },
    {
      "type": "Feature",
      "properties": {
        "name": "Competitor 17",
        "type": "Electronics",
        "chain": true,
        "estimated_revenue": 1803818
      },
      "geometry": {
        "type": "Point",
        "coordinates": [
          -73.961422,
          40.75355
        ]
      }
    },
    {
      "type": "Feature",
      "properties": {
        "name": "Competitor 18",
        "type": "Coffee Shop",
        "chain": true,
        "estimated_revenue": 1186711
      },
      "geometry": {
        "type": "Point",
        "coordinates": [
          -73.989249,
          40.752655
        ]
      }
    },
    {
      "type": "Feature",
      "properties": {
        "name": "Competitor 19",
        "type": "Convenience Store",
        "chain": true,
        "estimated_revenue": 1427525
      },
      "geometry": {
        "type": "Point",
        "coordinates": [
          -73.998518,
          40.756819
        ]
      }
    },
    {
      "type": "Feature",
      "properties": {
        "name": "Competitor 20",
        "type": "Coffee Shop",
        "chain": false,
        "estimated_revenue": 929727
      },
      "geometry": {
        "type": "Point",
        "coordinates": [
          -74.007708,
          40.765169
        ]
      }
    },
    {
      "type": "Feature",
      "properties": {
        "name": "Competitor 21",
        "type": "Coffee Shop",
        "chain": true,
        "estimated_revenue": 891648
      },
      "geometry": {
        "type": "Point",
        "coordinates": [
          -73.993484,
          40.761926
        ]
      }
    },
    {
      "type": "Feature",
      "properties": {
        "name": "Competitor 22",
        "type": "Bookstore",
        "chain": false,
        "estimated_revenue": 1906171
      },
      "geometry": {
        "type": "Point",
        "coordinates": [
          -73.997984,
          40.763865
        ]
      }
    },
    {
      "type": "Feature",
      "properties": {
        "name": "Competitor 23",
        "type": "Coffee Shop",
        "chain": false,
        "estimated_revenue": 729318
      },
      "geometry": {
        "type": "Point",
        "coordinates": [
          -73.985428,
          40.757178
        ]
      }
    },
    {
      "type": "Feature",
      "properties": {
        "name": "Competitor 24",
        "type": "Clothing Store",
        "chain": true,
        "estimated_revenue": 1579213
      },
      "geometry": {
        "type": "Point",
        "coordinates": [
          -73.99828,
          40.77752
        ]
      }
    },
    {
      "type": "Feature",
      "properties": {
        "name": "Competitor 25",
        "type": "Coffee Shop",
        "chain": true,
        "estimated_revenue": 1287246
      },
      "geometry": {
        "type": "Point",
        "coordinates": [
          -73.976164,
          40.750409
        ]
      }
    },
    {
      "type": "Feature",
      "properties": {
        "name": "Competitor 26",
        "type": "Bookstore",
        "chain": false,
        "estimated_revenue": 1793815
      },
      "geometry": {
        "type": "Point",
        "coordinates": [
          -73.999988,
          40.770968
        ]
      }
    },
    {
      "type": "Feature",
      "properties": {
        "name": "Competitor 27",
        "type": "Fast Food",
        "chain": false,
        "estimated_revenue": 1118796
      },
      "geometry": {
        "type": "Point",
        "coordinates": [
          -73.977995,
          40.759911
        ]
      }
    },
    {
      "type": "Feature",
      "properties": {
        "name": "Competitor 28",
        "type": "Coffee Shop",
        "chain": true,
        "estimated_revenue": 1688522
      },
      "geometry": {
        "type": "Point",
        "coordinates": [
          -73.974972,
          40.750591
        ]
      }
    },
    {
      "type": "Feature",
      "properties": {
        "name": "Competitor 29",
        "type": "Electronics",
        "chain": false,
        "estimated_revenue": 395473
      },
      "geometry": {
        "type": "Point",
        "coordinates": [
          -73.976609,
          40.768377
        ]
      }
    },
    {
      "type": "Feature",
      "properties": {
        "name": "Competitor 30",
        "type": "Coffee Shop",
        "chain": false,
        "estimated_revenue": 446344
      },
      "geometry": {
        "type": "Point",
        "coordinates": [
          -73.981551,
          40.776658
        ]
      }
    }
  ]
}