{
"type": "FeatureCollection",
"name": "expert_labeled_sites",
"crs": { "type": "name", "properties": { "name": "urn:ogc:def:crs:OGC:1.3:CRS84" } },
"features": [
{ "type": "Feature", "properties": { "expert_score": 95, "use_case": "warehouse" }, "geometry": { "type": "Point", "coordinates": [ 72.530154976637562, 22.985666302485644 ] } },
{ "type": "Feature", "properties": { "expert_score": 44, "use_case": "retail" }, "geometry": { "type": "Point", "coordinates": [ 72.466394768161663, 23.095883089745307 ] } },
{ "type": "Feature", "properties": { "expert_score": 52, "use_case": "ev_charging" }, "geometry": { "type": "Point", "coordinates": [ 72.536679690308986, 23.099290425771422 ] } },
{ "type": "Feature", "properties": { "expert_score": 42, "use_case": "retail" }, "geometry": { "type": "Point", "coordinates": [ 72.683159923449992, 23.028910225856272 ] } },
{ "type": "Feature", "properties": { "expert_score": 80, "use_case": "ev_charging" }, "geometry": { "type": "Point", "coordinates": [ 72.651925592261023, 22.999269649448461 ] } },
{ "type": "Feature", "properties": { "expert_score": 57, "use_case": "warehouse" }, "geometry": { "type": "Point", "coordinates": [ 72.580789500201504, 23.124895020656727 ] } },
{ "type": "Feature", "properties": { "expert_score": 59, "use_case": "ev_charging" }, "geometry": { "type": "Point", "coordinates": [ 72.5082968886054, 23.122880597438879 ] } },
{ "type": "Feature", "properties": { "expert_score": 55, "use_case": "retail" }, "geometry": { "type": "Point", "coordinates": [ 72.550220533781982, 23.009478666412399 ] } },
{ "type": "Feature", "properties": { "expert_score": 42, "use_case": "ev_charging" }, "geometry": { "type": "Point", "coordinates": [ 72.647532843431534, 22.993556160353513 ] } },
{ "type": "Feature", "properties": { "expert_score": 48, "use_case": "retail" }, "geometry": { "type": "Point", "coordinates": [ 72.570572830999055, 23.093915844949869 ] } },
{ "type": "Feature", "properties": { "expert_score": 63, "use_case": "ev_charging" }, "geometry": { "type": "Point", "coordinates": [ 72.523675342471378, 23.064242583550303 ] } },
{ "type": "Feature", "properties": { "expert_score": 76, "use_case": "retail" }, "geometry": { "type": "Point", "coordinates": [ 72.551601571700246, 23.12025223347241 ] } },
{ "type": "Feature", "properties": { "expert_score": 23, "use_case": "retail" }, "geometry": { "type": "Point", "coordinates": [ 72.615366551330922, 23.13065472444778 ] } },
{ "type": "Feature", "properties": { "expert_score": 60, "use_case": "retail" }, "geometry": { "type": "Point", "coordinates": [ 72.655936115478085, 23.121405805666114 ] } },
{ "type": "Feature", "properties": { "expert_score": 91, "use_case": "retail" }, "geometry": { "type": "Point", "coordinates": [ 72.510909642336401, 23.043720362024303 ] } },
{ "type": "Feature", "properties": { "expert_score": 35, "use_case": "warehouse" }, "geometry": { "type": "Point", "coordinates": [ 72.636433433420336, 22.957031398409701 ] } },
{ "type": "Feature", "properties": { "expert_score": 5, "use_case": "ev_charging" }, "geometry": { "type": "Point", "coordinates": [ 72.587421153414141, 23.121552829157203 ] } },
{ "type": "Feature", "properties": { "expert_score": 46, "use_case": "retail" }, "geometry": { "type": "Point", "coordinates": [ 72.683363776312461, 23.018919319145393 ] } },
{ "type": "Feature", "properties": { "expert_score": 67, "use_case": "warehouse" }, "geometry": { "type": "Point", "coordinates": [ 72.450957572625086, 22.997624968650801 ] } },
{ "type": "Feature", "properties": { "expert_score": 92, "use_case": "ev_charging" }, "geometry": { "type": "Point", "coordinates": [ 72.647493625004202, 23.077859094533089 ] } },
{ "type": "Feature", "properties": { "expert_score": 68, "use_case": "ev_charging" }, "geometry": { "type": "Point", "coordinates": [ 72.619792924884507, 22.964814981442089 ] } },
{ "type": "Feature", "properties": { "expert_score": 29, "use_case": "ev_charging" }, "geometry": { "type": "Point", "coordinates": [ 72.478545945059281, 23.053663744485835 ] } },
{ "type": "Feature", "properties": { "expert_score": 70, "use_case": "ev_charging" }, "geometry": { "type": "Point", "coordinates": [ 72.562395838230074, 23.117372684445318 ] } },
{ "type": "Feature", "properties": { "expert_score": 20, "use_case": "warehouse" }, "geometry": { "type": "Point", "coordinates": [ 72.465797069818635, 23.069637499987703 ] } },
{ "type": "Feature", "properties": { "expert_score": 99, "use_case": "retail" }, "geometry": { "type": "Point", "coordinates": [ 72.586007491323642, 23.061959144435953 ] } },
{ "type": "Feature", "properties": { "expert_score": 16, "use_case": "warehouse" }, "geometry": { "type": "Point", "coordinates": [ 72.478210136129221, 23.124004985104033 ] } },
{ "type": "Feature", "properties": { "expert_score": 88, "use_case": "retail" }, "geometry": { "type": "Point", "coordinates": [ 72.651694535626575, 22.981383454407446 ] } },
{ "type": "Feature", "properties": { "expert_score": 68, "use_case": "ev_charging" }, "geometry": { "type": "Point", "coordinates": [ 72.463686245564901, 23.021003053227247 ] } },
{ "type": "Feature", "properties": { "expert_score": 57, "use_case": "ev_charging" }, "geometry": { "type": "Point", "coordinates": [ 72.518602930250097, 23.030005927197259 ] } },
{ "type": "Feature", "properties": { "expert_score": 32, "use_case": "retail" }, "geometry": { "type": "Point", "coordinates": [ 72.662645049326656, 23.060109060123999 ] } },
{ "type": "Feature", "properties": { "expert_score": 43, "use_case": "ev_charging" }, "geometry": { "type": "Point", "coordinates": [ 72.476637811804025, 23.087671524982731 ] } },
{ "type": "Feature", "properties": { "expert_score": 67, "use_case": "retail" }, "geometry": { "type": "Point", "coordinates": [ 72.528211157001422, 22.969608907622188 ] } },
{ "type": "Feature", "properties": { "expert_score": 87, "use_case": "retail" }, "geometry": { "type": "Point", "coordinates": [ 72.606965956500531, 23.023045585251374 ] } },
{ "type": "Feature", "properties": { "expert_score": 63, "use_case": "retail" }, "geometry": { "type": "Point", "coordinates": [ 72.634868663471025, 23.03526365879814 ] } },
{ "type": "Feature", "properties": { "expert_score": 45, "use_case": "ev_charging" }, "geometry": { "type": "Point", "coordinates": [ 72.47494088942571, 22.960902377982173 ] } },
{ "type": "Feature", "properties": { "expert_score": 21, "use_case": "warehouse" }, "geometry": { "type": "Point", "coordinates": [ 72.48272028463839, 22.997113186918899 ] } },
{ "type": "Feature", "properties": { "expert_score": 25, "use_case": "warehouse" }, "geometry": { "type": "Point", "coordinates": [ 72.652356872115703, 23.110030529678347 ] } },
{ "type": "Feature", "properties": { "expert_score": 37, "use_case": "warehouse" }, "geometry": { "type": "Point", "coordinates": [ 72.503817261446457, 23.112220913261062 ] } },
{ "type": "Feature", "properties": { "expert_score": 43, "use_case": "warehouse" }, "geometry": { "type": "Point", "coordinates": [ 72.690548969069496, 23.007984952526606 ] } },
{ "type": "Feature", "properties": { "expert_score": 85, "use_case": "warehouse" }, "geometry": { "type": "Point", "coordinates": [ 72.679630382610782, 23.130822732095901 ] } },
{ "type": "Feature", "properties": { "expert_score": 43, "use_case": "retail" }, "geometry": { "type": "Point", "coordinates": [ 72.617611666320627, 23.0077678828955 ] } },
{ "type": "Feature", "properties": { "expert_score": 60, "use_case": "warehouse" }, "geometry": { "type": "Point", "coordinates": [ 72.636310371543118, 23.052890486880308 ] } },
{ "type": "Feature", "properties": { "expert_score": 82, "use_case": "warehouse" }, "geometry": { "type": "Point", "coordinates": [ 72.562212841413, 23.069802208842713 ] } },
{ "type": "Feature", "properties": { "expert_score": 19, "use_case": "ev_charging" }, "geometry": { "type": "Point", "coordinates": [ 72.546524797209372, 23.087964738579526 ] } },
{ "type": "Feature", "properties": { "expert_score": 79, "use_case": "ev_charging" }, "geometry": { "type": "Point", "coordinates": [ 72.606989683835735, 23.005038042354695 ] } },
{ "type": "Feature", "properties": { "expert_score": 42, "use_case": "warehouse" }, "geometry": { "type": "Point", "coordinates": [ 72.677251397208934, 23.141553331635244 ] } },
{ "type": "Feature", "properties": { "expert_score": 45, "use_case": "warehouse" }, "geometry": { "type": "Point", "coordinates": [ 72.628784194202794, 23.012990412383751 ] } },
{ "type": "Feature", "properties": { "expert_score": 67, "use_case": "retail" }, "geometry": { "type": "Point", "coordinates": [ 72.575768150067901, 22.966582916278895 ] } },
{ "type": "Feature", "properties": { "expert_score": 49, "use_case": "warehouse" }, "geometry": { "type": "Point", "coordinates": [ 72.52122831313811, 23.045656733502206 ] } },
{ "type": "Feature", "properties": { "expert_score": 93, "use_case": "retail" }, "geometry": { "type": "Point", "coordinates": [ 72.516396899576847, 23.103446678831844 ] } }
]
}
