{
  "type": "FeatureCollection",
  "features": [
    {
      "type": "Feature",
      "properties": {
        "name": "The Golden Fork",
        "category": "Restaurant",
        "rating": 3.9,
        "reviews": 124
      },
      "geometry": {
        "type": "Point",
        "coordinates": [
          -73.985975,
          40.757569
        ]
      }
    },
    {
      "type": "Feature",
      "properties": {
        "name": "Sakura Sushi",
        "category": "Restaurant",
        "rating": 4.6,
        "reviews": 289
      },
      "geometry": {
        "type": "Point",
        "coordinates": [
          -73.983556,
          40.759769
        ]
      }
    },
    {
      "type": "Feature",
      "properties": {
        "name": "Bella Italia",
        "category": "Restaurant",
        "rating": 3.5,
        "reviews": 121
      },
      "geometry": {
        "type": "Point",
        "coordinates": [
          -73.974811,
          40.762922
        ]
      }
    },
    {
      "type": "Feature",
      "properties": {
        "name": "Spice Route",
        "category": "Restaurant",
        "rating": 4.3,
        "reviews": 376
      },
      "geometry": {
        "type": "Point",
        "coordinates": [
          -73.983559,
          40.77144
        ]
      }
    },
    {
      "type": "Feature",
      "properties": {
        "name": "Urban Grill",
        "category": "Restaurant",
        "rating": 3.8,
        "reviews": 311
      },
      "geometry": {
        "type": "Point",
        "coordinates": [
          -73.995006,
          40.748104
        ]
      }
    },
    {
      "type": "Feature",
      "properties": {
        "name": "The Green Leaf",
        "category": "Restaurant",
        "rating": 4.6,
        "reviews": 91
      },
      "geometry": {
        "type": "Point",
        "coordinates": [
          -73.990041,
          40.777217
        ]
      }
    },
    {
      "type": "Feature",
      "properties": {
        "name": "Taco Fiesta",
        "category": "Restaurant",
        "rating": 3.7,
        "reviews": 500
      },
      "geometry": {
        "type": "Point",
        "coordinates": [
          -73.988729,
          40.750761
        ]
      }
    },
    {
      "type": "Feature",
      "properties": {
        "name": "Noodle House",
        "category": "Restaurant",
        "rating": 4.1,
        "reviews": 193
      },
      "geometry": {
        "type": "Point",
        "coordinates": [
          -73.985243,
          40.755713
        ]
      }
    },
    {
      "type": "Feature",
      "properties": {
        "name": "Bistro 42",
        "category": "Restaurant",
        "rating": 4.7,
        "reviews": 383
      },
      "geometry": {
        "type": "Point",
        "coordinates": [
          -73.975208,
          40.746907
        ]
      }
    },
    {
      "type": "Feature",
      "properties": {
        "name": "Harbor Seafood",
        "category": "Restaurant",
        "rating": 4.9,
        "reviews": 50
      },
      "geometry": {
        "type": "Point",
        "coordinates": [
          -73.989081,
          40.758707
        ]
      }
    },
    {
      "type": "Feature",
      "properties": {
        "name": "Cloud Kitchen",
        "category": "Restaurant",
        "rating": 4.4,
        "reviews": 451
      },
      "geometry": {
        "type": "Point",
        "coordinates": [
          -74.008788,
          40.752017
        ]
      }
    },
    {
      "type": "Feature",
      "properties": {
        "name": "Pasta Paradise",
        "category": "Restaurant",
        "rating": 3.6,
        "reviews": 348
      },
      "geometry": {
        "type": "Point",
        "coordinates": [
          -73.989179,
          40.761299
        ]
      }
    },
    {
      "type": "Feature",
      "properties": {
        "name": "Le Petit Chef",
        "category": "Restaurant",
        "rating": 3.6,
        "reviews": 129
      },
      "geometry": {
        "type": "Point",
        "coordinates": [
          -73.984312,
          40.764436
        ]
      }
    },
    {
      "type": "Feature",
      "properties": {
        "name": "Smoke & Fire BBQ",
        "category": "Restaurant",
        "rating": 4.2,
        "reviews": 437
      },
      "geometry": {
        "type": "Point",
        "coordinates": [
          -73.977968,
          40.751649
        ]
      }
    },
    {
      "type": "Feature",
      "properties": {
        "name": "The Vegan Spot",
        "category": "Restaurant",
        "rating": 3.8,
        "reviews": 146
      },
      "geometry": {
        "type": "Point",
        "coordinates": [
          -73.992749,
          40.764242
        ]
      }
    },
    {
      "type": "Feature",
      "properties": {
        "name": "Blue Bottle",
        "category": "Cafe",
        "rating": 3.6,
        "reviews": 335
      },
      "geometry": {
        "type": "Point",
        "coordinates": [
          -73.991542,
          40.743347
        ]
      }
    },
    {
      "type": "Feature",
      "properties": {
        "name": "Stumptown",
        "category": "Cafe",
        "rating": 3.7,
        "reviews": 204
      },
      "geometry": {
        "type": "Point",
        "coordinates": [
          -73.975222,
          40.772405
        ]
      }
    },
    {
      "type": "Feature",
      "properties": {
        "name": "The Daily Grind",
        "category": "Cafe",
        "rating": 4.5,
        "reviews": 122
      },
      "geometry": {
        "type": "Point",
        "coordinates": [
          -73.98893,
          40.778619
        ]
      }
    },
    {
      "type": "Feature",
      "properties": {
        "name": "Matcha Lab",
        "category": "Cafe",
        "rating": 4.7,
        "reviews": 127
      },
      "geometry": {
        "type": "Point",
        "coordinates": [
          -73.99548,
          40.740646
        ]
      }
    },
    {
      "type": "Feature",
      "properties": {
        "name": "Brew & Bean",
        "category": "Cafe",
        "rating": 4.1,
        "reviews": 43
      },
      "geometry": {
        "type": "Point",
        "coordinates": [
          -73.975093,
          40.741729
        ]
      }
    },
    {
      "type": "Feature",
      "properties": {
        "name": "Morning Sun",
        "category": "Cafe",
        "rating": 4.8,
        "reviews": 171
      },
      "geometry": {
        "type": "Point",
        "coordinates": [
          -73.978715,
          40.778543
        ]
      }
    },
    {
      "type": "Feature",
      "properties": {
        "name": "Perk Up",
        "category": "Cafe",
        "rating": 4.8,
        "reviews": 339
      },
      "geometry": {
        "type": "Point",
        "coordinates": [
          -73.982056,
          40.768904
        ]
      }
    },
    {
      "type": "Feature",
      "properties": {
        "name": "The Roastery",
        "category": "Cafe",
        "rating": 3.9,
        "reviews": 297
      },
      "geometry": {
        "type": "Point",
        "coordinates": [
          -73.993092,
          40.759521
        ]
      }
    },
    {
      "type": "Feature",
      "properties": {
        "name": "Urban Outfitters",
        "category": "Retail Store",
        "rating": 4.1,
        "reviews": 308
      },
      "geometry": {
        "type": "Point",
        "coordinates": [
          -74.006987,
          40.753932
        ]
      }
    },
    {
      "type": "Feature",
      "properties": {
        "name": "Zara",
        "category": "Retail Store",
        "rating": 5.0,
        "reviews": 270
      },
      "geometry": {
        "type": "Point",
        "coordinates": [
          -73.990746,
          40.76091
        ]
      }
    },
    {
      "type": "Feature",
      "properties": {
        "name": "H&M",
        "category": "Retail Store",
        "rating": 4.8,
        "reviews": 88
      },
      "geometry": {
        "type": "Point",
        "coordinates": [
          -74.007889,
          40.758691
        ]
      }
    },
    {
      "type": "Feature",
      "properties": {
        "name": "Nordstrom",
        "category": "Retail Store",
        "rating": 4.1,
        "reviews": 42
      },
      "geometry": {
        "type": "Point",
        "coordinates": [
          -74.001848,
          40.74523
        ]
      }
    },
    {
      "type": "Feature",
      "properties": {
        "name": "Nike Store",
        "category": "Retail Store",
        "rating": 4.2,
        "reviews": 138
      },
      "geometry": {
        "type": "Point",
        "coordinates": [
          -73.998735,
          40.766865
        ]
      }
    },
    {
      "type": "Feature",
      "properties": {
        "name": "Apple Store",
        "category": "Retail Store",
        "rating": 3.5,
        "reviews": 379
      },
      "geometry": {
        "type": "Point",
        "coordinates": [
          -73.9604,
          40.754506
        ]
      }
    },
    {
      "type": "Feature",
      "properties": {
        "name": "Best Buy",
        "category": "Retail Store",
        "rating": 4.6,
        "reviews": 403
      },
      "geometry": {
        "type": "Point",
        "coordinates": [
          -73.965774,
          40.771098
        ]
      }
    },
    {
      "type": "Feature",
      "properties": {
        "name": "Target",
        "category": "Retail Store",
        "rating": 4.2,
        "reviews": 242
      },
      "geometry": {
        "type": "Point",
        "coordinates": [
          -73.987593,
          40.75606
        ]
      }
    },
    {
      "type": "Feature",
      "properties": {
        "name": "Whole Foods",
        "category": "Grocery",
        "rating": 4.6,
        "reviews": 266
      },
      "geometry": {
        "type": "Point",
        "coordinates": [
          -73.964096,
          40.758331
        ]
      }
    },
    {
      "type": "Feature",
      "properties": {
        "name": "Trader Joe's",
        "category": "Grocery",
        "rating": 3.7,
        "reviews": 330
      },
      "geometry": {
        "type": "Point",
        "coordinates": [
          -73.98437,
          40.746631
        ]
      }
    },
    {
      "type": "Feature",
      "properties": {
        "name": "Gristedes",
        "category": "Grocery",
        "rating": 4.4,
        "reviews": 88
      },
      "geometry": {
        "type": "Point",
        "coordinates": [
          -73.991178,
          40.77169
        ]
      }
    },
    {
      "type": "Feature",
      "properties": {
        "name": "Morton Williams",
        "category": "Grocery",
        "rating": 4.9,
        "reviews": 482
      },
      "geometry": {
        "type": "Point",
        "coordinates": [
          -73.988864,
          40.760583
        ]
      }
    },
    {
      "type": "Feature",
      "properties": {
        "name": "Key Food",
        "category": "Grocery",
        "rating": 4.0,
        "reviews": 19
      },
      "geometry": {
        "type": "Point",
        "coordinates": [
          -73.985517,
          40.757998
        ]
      }
    },
    {
      "type": "Feature",
      "properties": {
        "name": "CVS Pharmacy",
        "category": "Pharmacy",
        "rating": 5.0,
        "reviews": 423
      },
      "geometry": {
        "type": "Point",
        "coordinates": [
          -73.977289,
          40.763269
        ]
      }
    },
    {
      "type": "Feature",
      "properties": {
        "name": "Walgreens",
        "category": "Pharmacy",
        "rating": 4.8,
        "reviews": 494
      },
      "geometry": {
        "type": "Point",
        "coordinates": [
          -73.986107,
          40.759217
        ]
      }
    },
    {
      "type": "Feature",
      "properties": {
        "name": "Duane Reade",
        "category": "Pharmacy",
        "rating": 4.7,
        "reviews": 399
      },
      "geometry": {
        "type": "Point",
        "coordinates": [
          -73.966403,
          40.765806
        ]
      }
    },
    {
      "type": "Feature",
      "properties": {
        "name": "Rite Aid",
        "category": "Pharmacy",
        "rating": 4.5,
        "reviews": 494
      },
      "geometry": {
        "type": "Point",
        "coordinates": [
          -73.98915,
          40.757424
        ]
      }
    },
    {
      "type": "Feature",
      "properties": {
        "name": "Chase Bank",
        "category": "Bank",
        "rating": 4.8,
        "reviews": 226
      },
      "geometry": {
        "type": "Point",
        "coordinates": [
          -73.992977,
          40.756168
        ]
      }
    },
    {
      "type": "Feature",
      "properties": {
        "name": "Bank of America",
        "category": "Bank",
        "rating": 4.6,
        "reviews": 363
      },
      "geometry": {
        "type": "Point",
        "coordinates": [
          -73.958647,
          40.753368
        ]
      }
    },
    {
      "type": "Feature",
      "properties": {
        "name": "Citibank",
        "category": "Bank",
        "rating": 5.0,
        "reviews": 342
      },
      "geometry": {
        "type": "Point",
        "coordinates": [
          -73.982708,
          40.764673
        ]
      }
    },
    {
      "type": "Feature",
      "properties": {
        "name": "Equinox",
        "category": "Gym",
        "rating": 4.2,
        "reviews": 136
      },
      "geometry": {
        "type": "Point",
        "coordinates": [
          -74.004172,
          40.772427
        ]
      }
    },
    {
      "type": "Feature",
      "properties": {
        "name": "Planet Fitness",
        "category": "Gym",
        "rating": 4.4,
        "reviews": 127
      },
      "geometry": {
        "type": "Point",
        "coordinates": [
          -73.983913,
          40.765497
        ]
      }
    },
    {
      "type": "Feature",
      "properties": {
        "name": "SoulCycle",
        "category": "Gym",
        "rating": 4.6,
        "reviews": 40
      },
      "geometry": {
        "type": "Point",
        "coordinates": [
          -73.985681,
          40.757915
        ]
      }
    },
    {
      "type": "Feature",
      "properties": {
        "name": "Drybar",
        "category": "Salon",
        "rating": 4.8,
        "reviews": 46
      },
      "geometry": {
        "type": "Point",
        "coordinates": [
          -73.981959,
          40.778156
        ]
      }
    },
    {
      "type": "Feature",
      "properties": {
        "name": "Supercuts",
        "category": "Salon",
        "rating": 4.2,
        "reviews": 286
      },
      "geometry": {
        "type": "Point",
        "coordinates": [
          -73.993724,
          40.757444
        ]
      }
    },
    {
      "type": "Feature",
      "properties": {
        "name": "Strand Bookstore",
        "category": "Bookstore",
        "rating": 4.4,
        "reviews": 252
      },
      "geometry": {
        "type": "Point",
        "coordinates": [
          -73.966809,
          40.773523
        ]
      }
    },
    {
      "type": "Feature",
      "properties": {
        "name": "Barnes & Noble",
        "category": "Bookstore",
        "rating": 4.1,
        "reviews": 58
      },
      "geometry": {
        "type": "Point",
        "coordinates": [
          -73.984883,
          40.768612
        ]
      }
    }
  ]
}