{
  "type": "FeatureCollection",
  "features": [
    {
      "type": "Feature",
      "properties": {
        "name": "Times Square\u201342nd St",
        "stop_id": "MTA_001",
        "routes": 7,
        "frequency": 9,
        "type": "bus"
      },
      "geometry": {
        "type": "Point",
        "coordinates": [
          -73.972921,
          40.764646
        ]
      }
    },
    {
      "type": "Feature",
      "properties": {
        "name": "Grand Central",
        "stop_id": "MTA_002",
        "routes": 11,
        "frequency": 13,
        "type": "subway"
      },
      "geometry": {
        "type": "Point",
        "coordinates": [
          -73.984236,
          40.756898
        ]
      }
    },
    {
      "type": "Feature",
      "properties": {
        "name": "Penn Station",
        "stop_id": "MTA_003",
        "routes": 2,
        "frequency": 6,
        "type": "subway"
      },
      "geometry": {
        "type": "Point",
        "coordinates": [
          -73.961448,
          40.765295
        ]
      }
    },
    {
      "type": "Feature",
      "properties": {
        "name": "Herald Square",
        "stop_id": "MTA_004",
        "routes": 7,
        "frequency": 5,
        "type": "bus"
      },
      "geometry": {
        "type": "Point",
        "coordinates": [
          -73.979644,
          40.769247
        ]
      }
    },
    {
      "type": "Feature",
      "properties": {
        "name": "Union Square",
        "stop_id": "MTA_005",
        "routes": 2,
        "frequency": 10,
        "type": "commuter_rail"
      },
      "geometry": {
        "type": "Point",
        "coordinates": [
          -74.015759,
          40.763483
        ]
      }
    },
    {
      "type": "Feature",
      "properties": {
        "name": "Columbus Circle",
        "stop_id": "MTA_006",
        "routes": 9,
        "frequency": 3,
        "type": "subway"
      },
      "geometry": {
        "type": "Point",
        "coordinates": [
          -73.966552,
          40.768143
        ]
      }
    },
    {
      "type": "Feature",
      "properties": {
        "name": "Rockefeller Center",
        "stop_id": "MTA_007",
        "routes": 3,
        "frequency": 9,
        "type": "bus"
      },
      "geometry": {
        "type": "Point",
        "coordinates": [
          -73.958479,
          40.747792
        ]
      }
    },
    {
      "type": "Feature",
      "properties": {
        "name": "5th Ave\u201353rd St",
        "stop_id": "MTA_008",
        "routes": 1,
        "frequency": 5,
        "type": "bus"
      },
      "geometry": {
        "type": "Point",
        "coordinates": [
          -74.016052,
          40.760723
        ]
      }
    },
    {
      "type": "Feature",
      "properties": {
        "name": "Lexington Ave\u201359th St",
        "stop_id": "MTA_009",
        "routes": 8,
        "frequency": 7,
        "type": "bus"
      },
      "geometry": {
        "type": "Point",
        "coordinates": [
          -73.971611,
          40.758142
        ]
      }
    },
    {
      "type": "Feature",
      "properties": {
        "name": "57th St\u20137th Ave",
        "stop_id": "MTA_010",
        "routes": 9,
        "frequency": 13,
        "type": "bus"
      },
      "geometry": {
        "type": "Point",
        "coordinates": [
          -73.994059,
          40.739411
        ]
      }
    },
    {
      "type": "Feature",
      "properties": {
        "name": "49th St",
        "stop_id": "MTA_011",
        "routes": 1,
        "frequency": 12,
        "type": "commuter_rail"
      },
      "geometry": {
        "type": "Point",
        "coordinates": [
          -73.979555,
          40.764608
        ]
      }
    },
    {
      "type": "Feature",
      "properties": {
        "name": "50th St\u2013Broadway",
        "stop_id": "MTA_012",
        "routes": 1,
        "frequency": 12,
        "type": "bus"
      },
      "geometry": {
        "type": "Point",
        "coordinates": [
          -73.975151,
          40.761158
        ]
      }
    },
    {
      "type": "Feature",
      "properties": {
        "name": "42nd St\u2013Bryant Park",
        "stop_id": "MTA_013",
        "routes": 3,
        "frequency": 3,
        "type": "commuter_rail"
      },
      "geometry": {
        "type": "Point",
        "coordinates": [
          -74.015833,
          40.757588
        ]
      }
    },
    {
      "type": "Feature",
      "properties": {
        "name": "34th St\u2013Herald Sq",
        "stop_id": "MTA_014",
        "routes": 10,
        "frequency": 4,
        "type": "subway"
      },
      "geometry": {
        "type": "Point",
        "coordinates": [
          -73.979709,
          40.760416
        ]
      }
    },
    {
      "type": "Feature",
      "properties": {
        "name": "28th St",
        "stop_id": "MTA_015",
        "routes": 10,
        "frequency": 6,
        "type": "commuter_rail"
      },
      "geometry": {
        "type": "Point",
        "coordinates": [
          -74.013062,
          40.772424
        ]
      }
    },
    {
      "type": "Feature",
      "properties": {
        "name": "23rd St",
        "stop_id": "MTA_016",
        "routes": 7,
        "frequency": 13,
        "type": "commuter_rail"
      },
      "geometry": {
        "type": "Point",
        "coordinates": [
          -74.003763,
          40.74866
        ]
      }
    },
    {
      "type": "Feature",
      "properties": {
        "name": "14th St\u2013Union Sq",
        "stop_id": "MTA_017",
        "routes": 5,
        "frequency": 6,
        "type": "bus"
      },
      "geometry": {
        "type": "Point",
        "coordinates": [
          -73.995824,
          40.754603
        ]
      }
    },
    {
      "type": "Feature",
      "properties": {
        "name": "Astor Place",
        "stop_id": "MTA_018",
        "routes": 11,
        "frequency": 13,
        "type": "bus"
      },
      "geometry": {
        "type": "Point",
        "coordinates": [
          -73.9845,
          40.768639
        ]
      }
    },
    {
      "type": "Feature",
      "properties": {
        "name": "8th St\u2013NYU",
        "stop_id": "MTA_019",
        "routes": 2,
        "frequency": 3,
        "type": "bus"
      },
      "geometry": {
        "type": "Point",
        "coordinates": [
          -74.017366,
          40.764648
        ]
      }
    },
    {
      "type": "Feature",
      "properties": {
        "name": "Christopher St\u2013Sheridan Sq",
        "stop_id": "MTA_020",
        "routes": 2,
        "frequency": 4,
        "type": "commuter_rail"
      },
      "geometry": {
        "type": "Point",
        "coordinates": [
          -74.000001,
          40.747534
        ]
      }
    }
  ]
}